Lead_Id,DealerId,Title,First Name,Last Name,Email Address,Telephone Number,Mobile Number,Work Number,Company,Title/Position,Address 1,Address 2,Town/City,State,Postcode,Country,Enquiry Type,Dealer/National,Enquiry Type [Other],Purchase Timeframe,Plantworx machine demo,Notes,Permissions [Post],Permissions [Telephone],Permissions [Email],Permissions [SMS],Status,Completed
1,1,Mr,Jim,Taylor,jimtaylor@jkrcontractors.com,01358 701665,,,JKR Contractors Ltd,Director,Backhill of Coldwells,Arthrath,ABERDEENSHIRE,,AB41 8YX,United Kingdom,Sales Enquiry,Balgownie,,0-3 Months,,,Yes,Yes,Yes,Yes,None,No
2,1,Mr,Lee,Innes,leeinnes@hotmail.com,01466 751092,07967 043911,,lee innes ltd,Builder,Birchmoor Lodge,Cornhill,BANFF,,AB45 2DJ,United Kingdom,Sales Enquiry,Balgownie,,0-3 Months,,Invite from balgownie,Yes,Yes,Yes,Yes,None,No
3,1,Mr,Stuart,Barclay,sbagri98@yahoo.co.uk,07798 907691,07798 907691,,Stuart Barclay agri-services,"Blacksmith, haulage contractor",Williamston Farm,Cornhill,ABERDEEN,Great Britain (United Kingdom),AB45 2DP,United Kingdom,Sales Enquiry,Balgownie,,0-3 Months,,General plant,Yes,Yes,Yes,Yes,None,No
4,1,Mr,James,Hall,james542hall@btinternet.com,07764 478487,,,JHJ ltd,Joiner,Gallabog Croft,Rothienorman,INVERURIE,,AB518XX,United Kingdom,Sales Enquiry,Balgownie,,0-3 Months,,,Yes,Yes,Yes,Yes,None,No
5,1,Mr,Gordon,Skene,gordon@grscs.co.uk,01542 839990,07732 449574,,Grs construction services ltd,Managing director,71 West Church Street,,BUCKIE,,AB56 1BQ,United Kingdom,Sales Enquiry,Balgownie,,0-3 Months,,Excavators,Yes,Yes,Yes,Yes,None,No
6,1,Mr,Rob,Munro,robmunro2002@hotmail.com,01349 369253,07771 696936,,I.R. Munro,Director,Crosshills Farm,,ALNESS,,IV17 0XX,United Kingdom,Sales Enquiry,Balgownie,,0-3 Months,,,Yes,Yes,Yes,Yes,None,No
7,1,Mr,Sam,Milne,sammilne26@gmail.com,07712 474774,,,S.milne contracting,Owner Oparator,Ballavoulen,Boath,ALNESS,,IV170XJ,United Kingdom,Sales Enquiry,Balgownie,,0-3 Months,,Mcr,Yes,Yes,Yes,Yes,None,No
8,2,Mr,Daniel,Bowman,danielbowman22@gmail.com,07903 100355,07903 100355,,Demo,Opertor,17 Griston,Road,WATTON,,IP25 6DN,United Kingdom,Sales Enquiry,CES,,0-3 Months,,,Yes,Yes,Yes,Yes,None,No
9,2,Mr,Nicholas,Dent,persehall@gmail.com,07714 122248,07714 122248,,Nicholas dent digger hire,Boss,Persehall Manor Farm,Bunwell,NORWICH,Norfolk,NR161ST,United Kingdom,Sales Enquiry,CES,,0-3 Months,,,Yes,Yes,Yes,Yes,None,No
10,2,Mr,Craig,Kay,craigkay@benburgess.co.uk,01603 628251,,,Ben Burgess,Sales,Europa Way,Martineu Lane,NORWICH,,NR1 2EN,United Kingdom,Sales Enquiry,CES,,0-3 Months,,,Yes,Yes,Yes,Yes,None,No
11,2,Mr,Lloyd,Coles,jlcplanthire@aol.com,01603 871549,07979 506800,,J L COLES,Owner,SAUL VILLA,PERRYS LANE,NORWICH,,NR10 4HJ,United Kingdom,Product Test,CES,,Immediately,TLB870,870 demo at Plantworx,Yes,Yes,Yes,Yes,None,No
12,2,Mr,Craig,Buck,sales@nr11groundworks.co.uk,01263 732480,,,NR116BL Groundworks & civil Engineering ltd,Plant opp,8,Layer Close,NORWICH,,NR116BL,United Kingdom,Sales Enquiry,CES,,0-3 Months,,,Yes,Yes,Yes,Yes,None,No
13,2,Mr,Liam,Lambert,liam@liamlambertconstruction.co.uk,07500 119755,07500 119755,,Liam Lambert Construction Ltd,Director,Oaklands,Norwich Road,ATTLEBOROUGH,,NR17 2LA,United Kingdom,Customer Service,CES,,12+ Months,,,Yes,Yes,Yes,Yes,None,No
14,2,Mr,Martin,Brown,sales@rima-uk.com,01362 696444,,,Rima (UK) Ltd,Business Development Manager,Unit 2,Rashes Green Industrial Estate,DEREHAM,,NR19 1JG,United Kingdom,Sales Enquiry,CES,,Immediately,,Supplier,Yes,Yes,Yes,Yes,None,No
15,2,Mr,Stuart,Lingwood,smarsham@hotmail.co.uk,07833 341140,,,wordingham plant hire ltd,Director,32 Beech Road,Beetley,DEREHAM,,NR204HR,United Kingdom,Sales Enquiry,CES,,4-6 Months,,,Yes,Yes,Yes,Yes,None,No
16,2,Mr,Thomas,Evershed,tom.evershed@onesitehire.co.uk,01502 589291,07848 455555,,OnesiteHire,Buyer,Unit 9,Cooke Road,LOWESTOFT,,NR33 7NA,United Kingdom,Sales Enquiry,CES,,0-3 Months,,General inquiry,Yes,Yes,Yes,Yes,None,No
17,2,Mr,James,Curran,jim@ovamill.co.uk,01502 470037,01502 470037,,Ovamill Limited,Site Manager,Seabrook House Unit 5 Tilia,,BECCLES,,NR34 7BF,United Kingdom,Sales Enquiry,CES,,0-3 Months,,Saw it was busy so came in,Yes,Yes,Yes,Yes,None,No
18,2,Mr,Liam,Lambert,liam@liamlambertconstruction.co.uk,07500 119755,07500 119755,,Liam Lambert Construction Ltd,Director,Oaklands,Norwich Road,ATTLEBOROUGH,,NR17 2LA,United Kingdom,Customer Service,CES,,12+ Months,,,Yes,Yes,Yes,Yes,None,No
19,2,Mr,Liam,Lambert,liam@liamlambertconstruction.co.uk,07500 119755,07500 119755,,Liam Lambert Construction Ltd,Director,Oaklands,Norwich Road,ATTLEBOROUGH,,NR17 2LA,United Kingdom,Sales Enquiry,CES,,7-12 Months,,,No,No,Yes,Yes,None,No
20,2,Mr,John,Broom,johnweston@norfolkplanthire.co.uk,01508 538929,07788 424847,,Norfolk Plant Hire,Director,West Lane,Brundall,NORWICH,,NR135RG,United Kingdom,Sales Enquiry,CES,,0-3 Months,,Looking for an alternate dealer,Yes,Yes,Yes,Yes,None,No
21,2,Mr,Paul,Franklin,nspa@pcclg.co.uk,01502 710731,,,Norfolk and Suffolk Plant Ltd,Sales Manager,,,BECCLES,,NR34 7TH,United Kingdom,Customer Service,CES,,7-12 Months,,,Yes,Yes,Yes,Yes,None,No
22,2,Mr,Keith,Rule,apdplantandgroundworks@yahoo.co.uk,07900 871663,,,Apd,Ground worker,Old Orchard,New Road,GREAT YARMOUTH,,NR319HR,United Kingdom,Sales Enquiry,CES,,0-3 Months,,NHL femo,Yes,Yes,Yes,Yes,None,No
23,2,Mr,Brian,Rivett,johnweston@norfolkplanthire.co.uk,01508 538929,,,Norfolk Plant Hire,Mechanic,West Lane,Brundall,NORWICH,,NR135RG,United Kingdom,Sales Enquiry,CES,,Immediately,,,Yes,Yes,Yes,Yes,None,No
24,3,Mr,Tom,Binns,tom@centa-uk.co.uk,07467 148999,,,Centa Transmissions,,Centa Transmissions,Thackley Court,SHIPLEY,,BD18 1BW,United Kingdom,Sales Enquiry,Chippendale/Russells,,Immediately,,,Yes,Yes,Yes,Yes,None,No
25,3,Mr,Andy,Walker,andy.walker@cspencerltd.co.uk,07876 666192,,,Spencer Group,Plant Manager,Mill Lane,,BARROW ON HUMBER,North Lincolnshire,DN19 7BD,United Kingdom,Sales Enquiry,Chippendale/Russells,,0-3 Months,,Dumpers,Yes,Yes,Yes,Yes,None,No
26,3,Mr,Adrian,Patrick,adrianpatrick@hotmail.co.uk,01673 818578,07768 384841,,Adrian's Plant Hire,Owner / operator,Conker Cottage,School Lane,GAINSBOROUGH,,DN214TS,United Kingdom,Brochure Request,Chippendale/Russells,,0-3 Months,,Interest in MWR,Yes,Yes,Yes,Yes,None,No
27,3,Mr,Martin,Foster,martin@largam.co.uk,07778 198896,07778 198896,,LARGAM LTD,PLANT MANAGER,7 TOWN STREET,SUTTON,RETFORD,,DN22 8PT,United Kingdom,Customer Service,Chippendale/Russells,,7-12 Months,,Mecalac dealer in the U.K. Already,Yes,Yes,Yes,Yes,None,No
28,3,Mr,Andrew,Thompson,andy@atgas.co.uk,07782 135900,07782 135900,,UK Scrapers,Operator,26 Stonecross Drive,Sprotbrough,DONCASTER,,DN5 7QH,United Kingdom,Sales Enquiry,Chippendale/Russells,,0-3 Months,,Bigger kit usually,Yes,Yes,Yes,Yes,None,No
29,3,Mr,Michael,Fisher,fishermichael696@gmail.com,07403 234260,07403 234260,,Alfa site services,Plant operator,75 Skipton Road,,HARROGATE,,HG1 4LF,United Kingdom,Sales Enquiry,Chippendale/Russells,,Immediately,,,Yes,Yes,Yes,Yes,None,No
30,3,Mr,Neil,Martland,neil.martland@alexisfilters.co.uk,01482 711 259,07960 448582,,Alexis Filters,Managing Director,Unit 5 Tom Thumb Indl Est,English Street,HULL,,HU3 2BT,United Kingdom,Sales Enquiry,Chippendale/Russells,,0-3 Months,,Suppliers,Yes,Yes,Yes,Yes,None,No
31,3,Mr,Jon,Mann,jon.mann@alexisfilters.co.uk,01482 711 259,07921 517004,,Alexis Filters,Technical Sales Engineer,Unit 5 Tom Thumb Indl Est,English Street,HULL,,HU3 2BT,United Kingdom,Sales Enquiry,Chippendale/Russells,,0-3 Months,,Supplier,Yes,Yes,Yes,Yes,None,No
32,3,Mr,W,Wiltshire,wiltshire.gary@yahoo.co.uk,07757 300346,07757 300346,,Repower Ltd,Director,844 York Road,,LEEDS,,LS146DY,United Kingdom,Sales Enquiry,Chippendale/Russells,,0-3 Months,,,Yes,Yes,Yes,Yes,None,No
33,3,Mr,Sean,Cassidy,scassidy@sfgroup.com,0113 322 0230,07540 770 781,,SF Group,Senior Consultant,1st Floor Cathedral Chambers,Great George Street,LEEDS,,LS2 8BD,United Kingdom,Sales Enquiry,Chippendale/Russells,,0-3 Months,,Enquiry about positions in sales,Yes,Yes,Yes,Yes,None,No
34,3,Mr,John,Carthy,carthycontracting@hotmail.co.uk,0113 286 9908,,,Carthy Contracting,Paper Monkey,84 Selby Road,Garforth,LEEDS,,LS25 1LP,United Kingdom,Sales Enquiry,Chippendale/Russells,,0-3 Months,,,Yes,Yes,Yes,Yes,None,No
35,3,Mr,Martin,Carthy,carthycontracting@hotmail.co.uk,0113 286 9908,,,Carthy Contracting,Proprietor,84 Selby Road,Garforth,LEEDS,,LS25 1LP,United Kingdom,Sales Enquiry,Chippendale/Russells,,0-3 Months,,,Yes,Yes,Yes,Yes,None,No
36,3,Mr,Stuart,Hartley,hartleyplanthireltd@gmail.com,07720 767109,04477 20767109,,Hartley plant hire ltd,Tea boy,24 Priestley Gsrdens,Pudsey,LEEDS,W Yorks,LS28 9AJ,United Kingdom,Sales Enquiry,Chippendale/Russells,,0-3 Months,,Bigger kit really,Yes,Yes,Yes,Yes,None,No
37,3,Mr,Nigel,Thompson,nigel@ukscrapers.co.uk,07748 627322,07748 627322,,U.K. Scrapers,Plant Manager,64,Foxcroft Mount,LEEDS,,LS6 3NW,United Kingdom,Sales Enquiry,Chippendale/Russells,,0-3 Months,,Bigger kit generally,Yes,Yes,Yes,Yes,None,No
38,3,Mr,Stuart,Wardman,stuart.wardman@eccogroup.com,01262 670161,,,ESG,OEM Sales Manager,Bessingby Industrial Estate,,BRIDLINGTON,,YO16 4SI,United Kingdom,Sales Enquiry,Chippendale/Russells,,Immediately,,,Yes,Yes,Yes,Yes,None,No
39,3,Mr,Philip,Frankland,philfrank1@hotmail.co.uk,01653 697820,07850 571636,,Vale of Pickering Internal Drainage Board,Foreman,15 Market Place,,MALTON,,YO17 7LP,United Kingdom,Sales Enquiry,Chippendale/Russells,,0-3 Months,,Just looking saw the new signs,Yes,Yes,Yes,Yes,None,No
40,3,Mr,Geoffrey,Sawyer,anikam@hotmail.co.uk,01904 620626,07850 919425,,WRIGHTS OF CROCKEY HILL LTD,FITTER,SELBY ROAD,CROCKEY HILL,YORK,,YO19 4SJ,United Kingdom,Sales Enquiry,Chippendale/Russells,,Immediately,,General,Yes,Yes,Yes,Yes,None,No
41,3,Mr,Thomas,Whiting,whitman55@gmail.com,07875 952939,07875 952939,,Elvington plant hire,PLANT OPERATOR,58 Croft Close,Market Weighton,YORK,,YO43 3JU,United Kingdom,Sales Enquiry,Chippendale/Russells,,0-3 Months,,,Yes,Yes,Yes,Yes,None,No
42,3,Mr,Kevin,Hallam,kevin.hallam@networkrail.co.uk,07515 620005,07515 620005,,Network Rail,Works Delivery Manger,Thistle Cottage,Mill Lane,SELBY,,YO8 6QX,United Kingdom,Sales Enquiry,Chippendale/Russells,,0-3 Months,,Excavators,Yes,Yes,Yes,Yes,None,No
43,3,Mr,William,Moses,william.moses@uk.abnamrolease.com,07867 319475,,,ABN AMRO Lease,Asset Manager,44 Wells Road,,DEWSBURY,,WF12 0LE,United Kingdom,Sales Enquiry,Chippendale/Russells,,0-3 Months,,,Yes,Yes,Yes,Yes,None,No
44,3,Mr,Adam,Spencer,adam.spencer@vpplc.com,07976 565937,,,Ess safeforce,Proximity warning systems,Unit 2,,CASTLEFORD,,WF105PY,United Kingdom,Sales Enquiry,Chippendale/Russells,,Immediately,,,Yes,Yes,Yes,Yes,None,No
45,3,Mr,Phiip,Sykes,,01652 686040,,,Singleton Birch,Operator,Melton Ross Quarries,,BARNETBY,,DN38 6AE,United Kingdom,Sales Enquiry,Chippendale/Russells,,0-3 Months,,,Yes,Yes,Yes,Yes,None,No
46,3,Mr,David,Stanfield,,01652 686040,,,Singleton Birch,Landfill,Melton Ross Quarries,,BARNETBY,,DN38 6AE,United Kingdom,Sales Enquiry,Chippendale/Russells,,0-3 Months,,,No,Yes,Yes,Yes,None,No
47,3,Mr,Martin,Benson,,,07831 454367,,MT Benson Plant,Propietor,The Old Barn,,FLAXTON,Tory,YO60 7RJ,United Kingdom,Sales Enquiry,Chippendale/Russells,,Immediately,,,Yes,Yes,Yes,Yes,None,No
48,3,Mr,George,Thompson,georgeukscrapers@icloud.com,07717 458672,07717 458672,,U.K scrapers,Operator no1,64 Foxcroft Mount,,LEEDS,,LS6 3NW,United Kingdom,Sales Enquiry,Chippendale/Russells,,0-3 Months,,Bigger kit really,Yes,Yes,Yes,Yes,None,No
49,3,Mr,Guy,Owen,guyowen@barncroft-engineering.co.uk,01977 612126,07809 745988,,barncroft engineering ltd,Engineer,10 Barncroft Close,Ackworth,PONTEFRACT,,WF7 7RW,United Kingdom,Sales Enquiry,Chippendale/Russells,,Immediately,,,Yes,Yes,Yes,Yes,None,No
50,3,Mr,Frazer,McFadden,paul@mcfaddengroupltd.com,0113 263 1221,0113 263 1221,,McFadden Building and Civil Engineering,Site Engineer,McFADDEN BUILDING & CIVIL ENGI,4 Redcote Lane,LEEDS,,LS4 2AL,United Kingdom,Sales Enquiry,Chippendale/Russells,,0-3 Months,,,Yes,Yes,Yes,Yes,None,No
51,3,Mr,Michael,Briggs,tony.briggs@arbcontractorsltd.co.uk,01274 674055,07778 762068,,arb contractors ltd,Foreman,Pepperhill Farm Cross Lane,Shelf Halifax,HALIFAX,,HX3 7TH,United Kingdom,Sales Enquiry,Chippendale/Russells,,0-3 Months,,6T Dumper,Yes,Yes,Yes,Yes,None,No
52,3,Mr,Charles,Stacey,charlesstacey62@gmail.com,01377 288029,,,Charles Adam Developments Ltd,Property Developer,Sunny Ridge,Thixendale,MALTON,,YO179TG,United Kingdom,Sales Enquiry,Chippendale/Russells,,Immediately,,,Yes,Yes,Yes,Yes,None,No
53,4,Mr,Neil,Grainger,neil@alwaysdigging.co.uk,07973 175624,07973 175624,,Always Digging,Owner / Operator,1 Riverside Yard,Hawley Road,CAMBERLEY,,GU17 9EP,United Kingdom,Sales Enquiry,CPS,,0-3 Months,,Mwr,Yes,Yes,Yes,Yes,None,No
54,4,Mr,James,Perks,jimperks@btinternet.com,01420 588319,07771 544848,,j p contractor,Owner,Royal Oak Stables,Gosport Road,ALTON,,GU34 3DJ,United Kingdom,Sales Enquiry,CPS,,0-3 Months,,Owns excavators. MCR,Yes,Yes,Yes,Yes,None,No
55,4,Mr,John,Sherrell,john@jsgroundwork.co.uk,07796 476011,07797 476011,,J.S Groundworks,Owner,Riverside,Hollywater Road,BORDON,,GU35 0AD,United Kingdom,Sales Enquiry,CPS,,Immediately,,6mcr / 8mcr,Yes,Yes,Yes,Yes,None,No
56,4,Mr,Steve,Keene,stevek@shorts-group.co.uk,01483 418887,01483 418887,,Shorts Group Ltd,Depot Manager,Unit 1 Old Station Yard,Station Lane,MILFORD,Surrey,GU8 5AD,United Kingdom,Sales Enquiry,CPS,,0-3 Months,,,Yes,Yes,Yes,Yes,None,No
57,4,Mr,Benjamin,Greenham,bengreenham@hotmail.com,07792 278495,07792 278495,,Reynolds and Read,Driver,158 Newport Road,,COWES,,PO31 7PS,United Kingdom,Sales Enquiry,CPS,,Immediately,,Browsing,Yes,Yes,Yes,Yes,None,No
58,4,Mr,Paul,Dempsey,info@jadempsey.co.uk,01983 403021,,,J A DEMPSEY CIVIL ENGINEERING,DIRECTOR,COLLEGE CLOSE,,SANDOWN,,PO36 8ED,United Kingdom,Sales Enquiry,CPS,,0-3 Months,,1 tonne dumper,Yes,Yes,Yes,Yes,None,No
59,4,Mr,Paul,Dempsey,info@jadempsey.co.uk,01983 403021,,,J A DEMPSEY CIVIL ENGINEERING,DIRECTOR,COLLEGE CLOSE,,SANDOWN,,PO36 8ED,United Kingdom,Sales Enquiry,CPS,,Immediately,,,Yes,Yes,Yes,Yes,None,No
60,4,Mr,Sean,Potts,spextramech@btconnect.com,07710 622863,07710 622863,,Extra Mech Services (Ltd),General Manager,44a,New Lane,HAVANT,Hants,PO92NF,United Kingdom,Customer Service,CPS,,12+ Months,,Ex Terex dealer,Yes,Yes,Yes,Yes,None,No
61,4,Mr,Rob,Taylor,robtayfan@sky.com,07956 646852,07956 646852,,Rob Taylor Plant Hire Ltd,Owner operator,1 Garton Close,Ifield,CRAWLEY,,RH11 OUB,United Kingdom,Sales Enquiry,CPS,,Immediately,,,Yes,Yes,Yes,Yes,None,No
62,4,Mr,Stuart,Heath,stuart@stedaplanthire.eclipse.co.uk,01403 822618,07711 897770,,Stead plant hire ltd,Director,Smithers Farm,Guildford Road,RUDGWICK,W Sussex,RH12 3BX,United Kingdom,Sales Enquiry,CPS,,Immediately,,,Yes,Yes,Yes,Yes,None,No
63,4,Mr,Owen,Sanders,ojsplanthire@yahoo.com,01293 851428,07521 812345,,O.J.S Plant Hire,Machine Driver,6 Clover Cottage,Faygate Lane,HORSHAM,,RH12 4SH,United Kingdom,Sales Enquiry,CPS,,0-3 Months,,D and r,Yes,Yes,Yes,Yes,None,No
64,4,Mr,Glyn,Northeast,angiemuggeridge@live.co.uk,01342 714222,,,northeast crane hire,Owner,Conniswood,Lake View Road,EAST GRINSTEAD,,RH19 2QE,United Kingdom,Sales Enquiry,CPS,,Immediately,,,Yes,Yes,Yes,Yes,None,No
65,4,Mr,Stephen,Callis,hackettmark26@aol.com,01293 871523,,,J.r Callis & son,Partner,The Bungalow,Lambs Green,HORSHAM,W Sussex,RH124RG,United Kingdom,Sales Enquiry,CPS,,0-3 Months,,,Yes,Yes,Yes,Yes,None,No
66,4,Mr,Oliver,Koziol,mjwcontractor@gmail.com,01420 76009,07921 566378,,Bew groundworks ltd,Labourer,7 Pine Road,Four Marks,ALTON,,GU34 5EZ,United Kingdom,Sales Enquiry,CPS,,0-3 Months,,,Yes,Yes,Yes,Yes,None,No
67,4,Mr,Steve,Smalldridge,srsmalldridge@outlook.com,07789 887672,07789 887672,,Srsmalldridge,Owner,2,Lyne Close,VIRGINIA WATER,,GU254EA,United Kingdom,Sales Enquiry,CPS,,0-3 Months,,,Yes,Yes,Yes,Yes,None,No
68,4,Mr,Gareth,Newell,gareth.newell@eichinger.co.uk,01276 605970,01276 605970,,Eichinger Equipment Ltd,Managing Director,69-73 James Rd,,FRIMLEY,Surrey,GU15 2RH,United Kingdom,Brochure Request,CPS,,12+ Months,,,No,Yes,Yes,Yes,None,No
69,5,Mr,Stephen,Dent,bdent@globalnet.co.uk,01200 423061,01200 423061,,Brian Dent Limited,Joint Managing Director,Littlemoor Mill,Whalley Road,CLITHEROE,,BB7 1PW,United Kingdom,Sales Enquiry,Dobsons,,Immediately,,Dumpers,Yes,Yes,Yes,Yes,None,No
70,5,Mr,William,Dent,bdent@globalnet.co.uk,01200 423061,01200 423061,,Brian Dent Limited,Joint Managing Director,Littlemoor Mill,Whalley Road,CLITHEROE,,BB7 1PW,United Kingdom,Sales Enquiry,Dobsons,,Immediately,,Dumpers,Yes,Yes,Yes,Yes,None,No
71,5,Mr,James,Durkin,c.bracewell51@icloud.com,07904 945085,07904 945085,,Durkin premier landscapes,Gaffer,100 Alkincoats,,COLNE,,BB8 9QQ,United Kingdom,Sales Enquiry,Dobsons,,0-3 Months,,,Yes,Yes,Yes,Yes,None,No
72,5,Mr,Cole,Bracewell,c.bracewell51@icloud.com,07904 945085,07904 945085,,Durkin premier landscapes,Groundworker,100 Alkincoats,,COLNE,,BB8 9QQ,United Kingdom,Sales Enquiry,Dobsons,,0-3 Months,,,Yes,Yes,Yes,Yes,None,No
73,5,Mr,Andrew,Merrell,andypandy122@icloud.com,07863 811737,07863 811737,,A&G Landscapes,Director,1 Hazelwood Road,,NELSON,,BB9 9NF,United Kingdom,Sales Enquiry,Dobsons,,0-3 Months,,,Yes,Yes,Yes,Yes,None,No
74,5,Mr,Paul,Douglas,pwdouglas@aol.com,01946 841318,07736 046068,,Paul Douglas general building and ground works ltd,Owner,Orchard Brow Barn,Haile,CARLISLE,Cumbria,CA22 2PD,United Kingdom,Product Test,Dobsons,,0-3 Months,6MCR,Demo on 6MCR at plantworx,Yes,Yes,Yes,Yes,None,No
75,5,Mr,Rhys,Singleton,diggerjohn148@hotmail.co.uk,07743 905154,07762 537683,,J.G IRVING ARGI SERVICES,Yard Cleaner,Low Farm,,MOOR ROW,,CA243JA,United Kingdom,Sales Enquiry,Dobsons,,0-3 Months,,,Yes,Yes,Yes,Yes,None,No
76,5,Mr,Jordan,Irving,diggerjohn148@hotmail.co.uk,07743 905154,07743 905154,,J.G IRVING ARGI SERVICES,Tea Boy,Low Farm,,MOOR ROW,,CA243JA,United Kingdom,Sales Enquiry,Dobsons,,0-3 Months,,,Yes,Yes,Yes,Yes,None,No
77,5,Mr,Nigel,Irving,nigelpirving@yahoo.com,0191 373 4453,07974 371734,,N. Irving Groundworks,Proprietor,21 Commercial Street,Cornsay Colliery,CO DURHAM,,DH7 9BN,United Kingdom,Sales Enquiry,Dobsons,,Immediately,,,Yes,Yes,Yes,Yes,None,No
78,5,Mr,David,Ward,david11ward.plant@btinternet.com,07860 787941,07860 787941,,D. Ward Plant Hire Ltd,Director,West Edmondsley Farm Cottage,Edmondsley,DURHAM,County Durham,DH76EY,United Kingdom,Sales Enquiry,Dobsons,,0-3 Months,,,Yes,Yes,Yes,Yes,None,No
79,5,Mr,David,Ward,david11ward.plant@btinternet.com,07860 787941,07860 787941,,D. Ward Plant Hire Ltd,Director,West Edmondsley Farm Cottage,Edmondsley,DURHAM,County Durham,DH76EY,United Kingdom,Sales Enquiry,Dobsons,,0-3 Months,,Dumper brochure pricing . Dealer to follow up,Yes,Yes,Yes,Yes,None,No
80,5,Mr,Robert,Walton,ali_da_pimp@hotmail.com,07825 913463,,,Rob Walton groundworks,Director,4 Front Street,Bowes,BARNARD CASTLE,,DL129HT,United Kingdom,Sales Enquiry,Dobsons,,Immediately,,,Yes,Yes,Yes,Yes,None,No
81,5,Mr,Mike,Carr,mike.pagefarm@yahoo.co.uk,07774 425641,07774 425641,,Sewell & carr,M D,Page Farm Darlington Road,Heighington Village,NEWTON AYCLIFFE,,DL5 6RS,United Kingdom,Sales Enquiry,Dobsons,,0-3 Months,,,Yes,Yes,Yes,Yes,None,No
82,5,Mr,Christopher,Wood,christopher.wood132@btinternet.com,07786 068376,07786 068376,,Scott's of Whittington ltd,Site manager,Great Whittington,,NEWCASTLE UPON TYNE,,NE192HP,United Kingdom,Sales Enquiry,Dobsons,,0-3 Months,,,Yes,Yes,Yes,Yes,None,No
83,5,Mr,Paul,Russell,paul.russell@vls-ltd.com,0191 2937114,07894 399121,,Vehicle Lease and Service Ltd,Commercial Manager,3rd Floor,Centre For Advanced Industry,NEWCASTLE UPON TYNE,Tyne & Wear,NE29 6DE,United Kingdom,Sales Enquiry,Dobsons,,Immediately,,,Yes,Yes,Yes,Yes,None,No
84,5,Mr,Derek,Leece,del_b77@hotmail.com,01772 780001,,,D E LEECE LTD,Director,Unit 6 Ashley Hall,Inglewhite Road,PRESTON,,PR3 2EB,United Kingdom,Sales Enquiry,Dobsons,,Immediately,,,Yes,Yes,Yes,Yes,None,No
85,5,Mr,Dan,Clarke,richard@thistleearth.co.uk,07711 118407,07711 118407,,Newfield Farm 600 Whittingham Lane,Plant Operator,Goosnargh,600 Whittingham Lane,PRESTON,,PR3 2JJ,United Kingdom,Sales Enquiry,Dobsons,,0-3 Months,,Mcr,Yes,Yes,Yes,Yes,None,No
86,5,Mr,Neil,Parkinson,richard@thistleearth.co.uk,07711 118407,07711 118407,,Newfield Farm 600 Whittingham Lane,Plant Engineer,Goosnargh,600 Whittingham Lane,PRESTON,,PR3 2JJ,United Kingdom,Sales Enquiry,Dobsons,,12+ Months,,MWR range,Yes,Yes,No,Yes,None,No
87,5,Mr,Morris,Savage,nelliesavage@btinternet.com,,07836 751371,,J P Savage Plant Hire,Assistant,10 Dick Lane,Brinscall,CHORLEY,,PR6 8QH,United Kingdom,Sales Enquiry,Dobsons,,Immediately,,,Yes,Yes,Yes,Yes,None,No
88,5,Mr,Stephen,Race,stephen.race@seymourcivil.co.uk,01429 233521,,,Seymour CEC Ltd,Health & Safety Manager,Seymour House,Harbour Walk,HARTLEPOOL,,TS24 0UX,United Kingdom,Sales Enquiry,Dobsons,,Immediately,,,Yes,Yes,Yes,Yes,None,No
89,5,Mr,William,Crayston,,,,,C W Crayston,Owner,Calderbridge,,SEASCALE,,CA20 1DX,United Kingdom,Sales Enquiry,Dobsons,,7-12 Months,,Only really interested in used. Mwr is a possibility,Yes,Yes,Yes,Yes,None,No
90,5,Mrs,Ann,Newberry,,,,,Springcroft Devolpment Limited,,Hotchberry Road,Brigham,COCKERMOUTH,,CA13 0TQ,United Kingdom,Sales Enquiry,Dobsons,,0-3 Months,,,Yes,Yes,Yes,Yes,None,No
91,5,Mr,Jack,Hull,jack@jhullplant.co.uk,07725 570907,,,J.Hull Plant Engineers,Plant Engineer,21 Meadowcroft Ave,Hambleton,POULTON-LE-FYLDE,Lancs,FY6 9AD,United Kingdom,Brochure Request,Dobsons,,7-12 Months,,Dumpers,Yes,Yes,Yes,Yes,None,No
92,5,Mr,Jonathan,WEMYSS,johnny@hmhcivils.co.uk,,07815 884064,,Hmh Civils,Plant Manager,Seamer Road,Thornton,MIDDLESBROUGH,,TS8 9DG,United Kingdom,Sales Enquiry,Dobsons,,0-3 Months,,,Yes,Yes,Yes,Yes,None,No
93,5,Mr,Kieran,Irving,nigelpirving@yahoo.com,07974 371734,,,Nigel Irving Groundworks,Plant Operator,Reservoir House,West Terrace,CROOK,,DL15 9SS,United Kingdom,Sales Enquiry,Dobsons,,Immediately,,,Yes,Yes,Yes,Yes,None,No
94,5,Mr,Peter,Robinson,treetransplanters@tiscali.co.uk,07713 627329,07713 627329,,Northern tree transplanters,Owner,Lizards Farm,Lanchester,DURHAM,,DH7 0RE,United Kingdom,Sales Enquiry,Dobsons,,0-3 Months,,Mcr 6 or 8,Yes,Yes,Yes,Yes,None,No
95,6,Mr,Anthony,Byrne,anthony.byrne@-eurocyl.com,,,,Burnside Eurocyl Ltd,Joint Managing Director,O'Brien Raod,Carlow,,,,United Kingdom,Sales Enquiry,EMS,,0-3 Months,,,Yes,Yes,Yes,Yes,None,No
96,6,Mr,Tim,Scanlon,scanconltdsite@eircom.net,06842 144,0872 253 323,,SCANLON CONSTRUCTION LTD,ENGINEER,MAIN STREET,,ATHEA,Co Limerick,,Ireland,Sales Enquiry,EMS,,0-3 Months,,MCR range. Has excavators and dumpers so interested in both.,Yes,Yes,Yes,Yes,None,No
97,6,Mr,Bill,Donohue,wdp@outlook.ie,0872 541 957,,,wdp.ie,Plant Manager,5 Robinhood Rd,Ballymount,DUBLIN,Co Dublin,,Ireland,Sales Enquiry,EMS,,4-6 Months,,"EMS customer, runs Dumpers problems on parts supply, uses Sleator at times",Yes,Yes,Yes,Yes,None,No
98,6,Mr,Michael,Barry,parts@noelosheaplant.com,+353 867758004,+353 867758004,,Noel O'shea plant limited,Parts Dept,Bishops Island,Watergrasshill,CORK,Co Cork,,Ireland,Sales Enquiry,EMS,,0-3 Months,,,Yes,Yes,Yes,Yes,None,No
99,6,Mr,Paul,Curran,pauljoecurran@gmail.com,+353 (0)868527946,+353 (0)868527946,,Mr,Owner,1 Stoneyford Green,Duleek,DULEEK,Co Meath,,Ireland,Sales Enquiry,EMS,,0-3 Months,,,Yes,Yes,Yes,Yes,None,No
100,6,Mr,Frank,Smyth,frank@fjsplant.ie,0866 039 007,+353 8606039007,,FJS PLANT Limited,DIRECTOR,TIMAHOE,NAAS,CO KILDARE,Co Kildare,,Ireland,Sales Enquiry,EMS,,Immediately,,,Yes,Yes,Yes,Yes,None,No
101,6,Mr,Mark,Byrne,info@mbengineering.ie,085 8339326,,,MB Engineering,,O'Brien Rd,Carlow,,,,United Kingdom,Sales Enquiry,EMS,,0-3 Months,,,Yes,Yes,Yes,Yes,None,No
102,7,Mr,Neil,Maitland,maitlandlandscaping@gmail.com,07980 618513,07981 618513,,Neil Maitland Landscaping,Owner,26 Castle Hill Crescent,Mere,WARMINSTER,,BA12 6HL,United Kingdom,Sales Enquiry,Kellands,,Immediately,,Excavator,Yes,Yes,Yes,Yes,None,No
103,7,Mr,Alan,Orchard,alan@macontractors.uk,01934 751183,07778 657137,,M A Contractors Ltd,Director,Wheelwrights,Webbington Road,AXBRIDGE,,BS26 2HW,United Kingdom,Sales Enquiry,Kellands,,0-3 Months,,,Yes,Yes,Yes,Yes,None,No
104,7,Mr,Craig,Channon,craig.channon@hotmail.co.uk,77900 25796,07790 025796,,Channon Plant Hire,Proprietor,40 Wideatts Road,,CHEDDAR,,BS27 3AT,United Kingdom,Sales Enquiry,Kellands,,0-3 Months,,Ta2seh definite interest asap. Kellands to contact,Yes,Yes,Yes,Yes,None,No
105,7,Mrs,Donna,Tucker,donnatucker68@gmail.com,01934 713646,07775 952679,,John Tucker & Son Ltd,Director,Lockyers Farm,Mudgley,WEDMORE,,BS28 4TY,United Kingdom,Sales Enquiry,Kellands,,0-3 Months,,John tucker,Yes,Yes,Yes,Yes,None,No
106,7,Mr,Andrew,Tucker,andy@jtuckerandson.co.uk,01934 713646,07831 828809,,John Tucker & Son Ltd,Managing Director,Lockyers Farm,Mudgley,WEDMORE,,BS28 4TY,United Kingdom,Brochure Request,Kellands,,12+ Months,,"Ditching work, wants wider track and hurder boom for more reach to ditch clean / tees cutring",Yes,Yes,Yes,Yes,None,No
107,7,Mr,Mac,Bailey,tricia@reedbailey.co.uk,01275 462437,07710 937873,,Red Bros & Bailey Ltd,Director,14,Church Lane,BRISTOL,,BS48 3PQ,United Kingdom,Brochure Request,Kellands,,Immediately,,,Yes,Yes,Yes,Yes,None,No
108,7,Mr,Way,Nick,nicholas1961@hotmail.co.uk,07968 266440,,,England Civils LTD,Plant Opp,South Farm Cottage,Holnest,SHERBORNE,,DT9 5PR,United Kingdom,Sales Enquiry,Kellands,,Immediately,,,Yes,Yes,Yes,Yes,None,No
109,7,Mr,Tony,Pavey,sue.pavey@talktalk.net,01297 598277,,,Machinery Rebuilds,Partner,174 Harepath Road,,SEATON,,EX12 2HE,United Kingdom,Sales Enquiry,Kellands,,0-3 Months,,,Yes,Yes,Yes,Yes,None,No
110,7,Mr,Dave,Baker,brunothou@yahoo.co.uk,,,,plart hire,Fitter,Crossways,,AXMINSTER,,EX13 7BT,United Kingdom,Brochure Request,Kellands,,4-6 Months,,General look,Yes,Yes,Yes,Yes,None,No
111,7,Mr,Robin,Wearn,robin.wearn@mstgroup.co.uk,01664 254444,,,MST,Construction Specialist,Blundells Road,,TIVERTON,,EX16 4DA,United Kingdom,Sales Enquiry,Kellands,,Immediately,,,Yes,Yes,Yes,Yes,None,No
112,7,Mr,Steven,North,sjnorth@tiscali.co.uk,01363 877317,07974 850088,,s north,Construction Worker/farmer,Oxenpark Farm,Morchard Bishop,CREDITON,,EX17 6RX,United Kingdom,Sales Enquiry,Kellands,,0-3 Months,,,Yes,Yes,Yes,Yes,None,No
113,7,Mr,David,Ware,daveware19@gmail.com,07928 688465,07929 688465,,redroe,Plant Operator,The Mill House,Lewdown,OKEHAMPTON,,EX20 4PL,United Kingdom,Sales Enquiry,Kellands,,0-3 Months,,,Yes,Yes,Yes,Yes,None,No
114,7,Mr,Luke,Kemp,lukekemp81@gmail.com,07814 129916,,,L&K plant hire,Owner,New House Farm,Stoke Rivers,BARNSTAPLE,,EX32 7LD,United Kingdom,Sales Enquiry,Kellands,,0-3 Months,,All,Yes,Yes,Yes,Yes,None,No
115,7,Mr,Luke,Kemp,lukekemp81@gmail.com,07814 129916,07815 129916,,L&K plant hire,Owner,New House Farm,Stoke Rivers,BARNSTAPLE,,EX32 7LD,United Kingdom,Sales Enquiry,Kellands,,0-3 Months,,One tonne,Yes,Yes,Yes,Yes,None,No
116,7,Mr,Tony,Greenaway,info@gwandr.co.uk,01271 864064,,,Greenaways Waste & Recycling,Proprietor,Little Stowford Transfer Stati,Hore Down Gate,ILFRACOMBE,Devon,EX34 8PH,United Kingdom,Sales Enquiry,Kellands,,0-3 Months,,6 mcr demo very interested BA,Yes,Yes,Yes,Yes,None,No
117,7,Mr,Shaun,Price,office@kateprice.co.uk,01769 560305,01769 560305,,77651333,Owner operator,Yelland Farm,High Bickington,UMBERLEIGH,,EX37 9BX,United Kingdom,Sales Enquiry,Kellands,,0-3 Months,,,Yes,Yes,Yes,Yes,None,No
118,7,Mr,Ross,Hannam,ross@wheelmasters.co.uk,01594 835678,07950 900225,,Wheelmasters UK Ltd,Manager,Stepbridge Road,,COLEFORD,,GL16 8PJ,United Kingdom,Sales Enquiry,Kellands,,0-3 Months,,,Yes,Yes,Yes,Yes,None,No
119,7,Mr,Lloyd,Hopson,lhopson@grouphes.com,,,,Group HES Ltd,Sales Manager,Dowco House,Innsworth Tech Park,GLOUCESTER,,GL3 1DL,United Kingdom,Sales Enquiry,Kellands,,0-3 Months,,,Yes,Yes,Yes,Yes,None,No
120,7,Mr,Daniel,Hall,mail@dhallplant.com,07815 586876,,,D.Hall Plant,Managing Director,Oakleaf Cottage,Princess Road,LISKEARD,,PL145NF,United Kingdom,Sales Enquiry,Kellands,,0-3 Months,,,Yes,Yes,Yes,Yes,None,No
121,7,Mr,Joe,Foster,joefoster89@hotmail.co.uk,01579 363654,07894 567459,,Steve Hoskin construction,Operator,Tregollas,Fore Street,LISKEARD,,PL145PZ,United Kingdom,Sales Enquiry,Kellands,,0-3 Months,,,Yes,Yes,Yes,Yes,None,No
122,7,Mr,John,Fry,ejfry@btinternet.com,01566 785687,07966 447307,,Ejfry transport and plant hire ltd,Managing director,Serendipity,Boyton,LAUNCESTON,,PL158NU,United Kingdom,Sales Enquiry,Kellands,,0-3 Months,,,Yes,Yes,Yes,Yes,None,No
123,7,Mr,Tobi,Bastin,t_bastin@hotmail.co.uk,07967 005804,07967 005804,,TWB,Owner,19 Prideaux Road,,IVYBRIDGE,,PL21 0JS,United Kingdom,Sales Enquiry,Kellands,,0-3 Months,,,Yes,Yes,Yes,Yes,None,No
124,7,Mr,Mark,Richards,markrichards1972@gmail.com,01726 64501,07971 240929,,Mark Richards Plant Hire Ltd,Director,Oranje,Chapel Hill,STICKER,Cornwall,PL26 7HG,United Kingdom,Sales Enquiry,Kellands,,0-3 Months,,MWR and mcr,Yes,Yes,Yes,Yes,None,No
125,7,Mr,Jason,Bell,jasonabellcontractor@gmail.com,01278 683167,07774 893344,,JASON BELL CONTRACTOR,MANAGER,COLLINS FARM,STRETCHOLT,BRIDGWATER,,TA6 4SR,United Kingdom,Sales Enquiry,Kellands,,0-3 Months,,Mcr,Yes,Yes,Yes,Yes,None,No
126,7,Mr,Matthew,Widdicombe,widdi_21@hotmail.co.uk,07929 453435,,,J & MJ Widdicombe,Farmer,Cutwellcombe,Avonwick,SOUTH BRENT,,TQ10 9HA,United Kingdom,Sales Enquiry,Kellands,,0-3 Months,,,Yes,Yes,Yes,Yes,None,No
127,7,Mr,Ian,Connabeer,ijandcjtalbot@hotmail.com,07870 875678,,,IJ & CJ Talbot,Operative,Bulkamore Farm Cottage,Rattery,SOUTH BRENT,,TQ10 9LQ,United Kingdom,Sales Enquiry,Kellands,,0-3 Months,6MCR,Colleague Chris Talbot did 6MCR demo,Yes,Yes,Yes,Yes,None,No
128,7,Mr,Martin,Skedgell,skedgey-gms@hotmail.co.uk,07753 807972,07753 807972,,Steve white plant hire,Plant manger,94 Ashburton Road,Highweek,NEWTON ABBOT,,TQ121RJ,United Kingdom,Sales Enquiry,Kellands,,0-3 Months,,,No,Yes,Yes,Yes,None,No
129,7,Mr,Steve,White,stevewhiteplant@googlemail.com,01803 812134,07785 971490,,Steve White Plant Hire,Owner,Whitfield,No Place Hill,TOTNES,,TQ9 6BB,United Kingdom,Customer Service,Kellands,,0-3 Months,,,Yes,Yes,Yes,Yes,None,No
130,7,Mr,John,Julyan,tregerles@gmail.com,07929 729239,07929 729239,,Tms,Owen,Tregerles Farm,Mitchell,NEWQUAY,,TR8 4PW,United Kingdom,Sales Enquiry,Kellands,,0-3 Months,,,Yes,Yes,Yes,Yes,None,No
131,7,Mr,Samuel,Julyan,tregerles@gmail.com,07929 729239,07929 729239,,tms,Apprentice,Tregerles Farm,Mitchell,NEWQUAY,,TR8 4PW,United Kingdom,Sales Enquiry,Kellands,,0-3 Months,,,Yes,Yes,Yes,Yes,None,No
132,7,Mr,Mark,Golding,mark@roadreclamation.co.uk,01749 870583,01749 870583,,MP & KM Golding ltd,Director,The Nets Butts Lane,,RODNEY STOKE NR CHEDDAR,Somerset,BS27 3UW,United Kingdom,Sales Enquiry,Kellands,,0-3 Months,,MWR demo as soon as available,Yes,Yes,Yes,Yes,None,No
133,7,Mr,Lewis,Reading,jonathanrbtcox@gmail.com,01425 674818,07709 417770,,GREENER PASTURES,OWNER,VERNON DENE,RINGWOOD ROAD,CHRISTCHURCH,,BH23 8EL,United Kingdom,Sales Enquiry,Kellands,,12+ Months,,,No,No,Yes,No,None,No
134,7,Mr,Lewis,Reading,jonathanrbtcox@gmail.com,01425 674818,07709 417770,,GREENER PASTURES,OWNER,VERNON DENE,RINGWOOD ROAD,CHRISTCHURCH,,BH23 8EL,United Kingdom,Sales Enquiry,Kellands,,12+ Months,,Mcr 6 or 8,No,No,Yes,No,None,No
135,7,Mr,Peter,Acreman,paulmillardplant@btinternet.com,01747 871976,07989 320267,,PAUL MILLARD PLANT HIRE LTD,PLANT OPERATOR,The Cottage,Bridzor,SALISBURY,,SP3 6RN,United Kingdom,Sales Enquiry,Kellands,,0-3 Months,,Rollers,Yes,Yes,Yes,Yes,None,No
136,7,Mr,Neil,Parsons,,01794 874531,07748 490612,,Gar Training Services,Plant Operator Instruction,63 Basepoint Business Centre,,ROMSEY,,SO51 9AQ,United Kingdom,Sales Enquiry,Kellands,,0-3 Months,,Mcr,Yes,Yes,Yes,Yes,None,No
137,7,Mr,Robin,Blackmore,hillcrestfarmej@hotmail.co.uk,01271 863533,01271 863533,,J E Blackmore & Son,Farmer,Hillcrest Farm,Bittadon,BARNSTAPLE,,EX31 4HN,United Kingdom,Sales Enquiry,Kellands,,0-3 Months,,,Yes,Yes,Yes,Yes,None,No
138,7,Mr,Robin,Blackmore,hillcrestfarmej@hotmail.co.uk,01271 863533,01271 863533,,J E Blackmore & Son,Farmer,Hillcrest Farm,Bittadon,BARNSTAPLE,,EX31 4HN,United Kingdom,Sales Enquiry,Kellands,,0-3 Months,,Dumper,Yes,Yes,Yes,Yes,None,No
139,7,MR,GLEN,RANDLES,,01794 874531,07880 781464,,GAR TRAINING SERVICES,PLANT INSTRUCTOR,UNIT 63 BASEPOINT,PREMIER WAY,ROMSEY,,SO51 9AQ,United Kingdom,Sales Enquiry,Kellands,,0-3 Months,,Mcr,Yes,Yes,Yes,Yes,None,No
140,7,Mr,Simon,Foster,simon.foster@longhousegroup.co.uk,01884 254444,,,Medland Sanders & Twose Ltd,Managing Director,Blundells Road,,TIVERTON,Devon,TQ10 9JG,United Kingdom,Sales Enquiry,Kellands,,Immediately,,,Yes,Yes,Yes,Yes,None,No
141,8,Mr,Colin,Sheldon,colin@phoenix-hire-sales.co.uk,01656 654938,07387 102498,,Phoenix Hire & Sales Ltd,Area Sales Manager,Unit 8 New Tarren Workshops,Dunraven Business Park,BRIDGEND,,CF31 3BG,United Kingdom,Sales Enquiry,LDH/Cambrian,,0-3 Months,,,Yes,Yes,Yes,Yes,None,No
142,8,Mr,Gareth,Rees,gareth@seerconstruction.co.uk,01874 730388,07981 839985,,Seer construction ltd,Director,Maesglas Barn,Middlewood Farm,BRECON,Powys,LD37HQ,United Kingdom,Sales Enquiry,LDH/Cambrian,,0-3 Months,,,Yes,Yes,Yes,Yes,None,No
143,8,Mr,Ieu,Griffiths,adrian.rees@hotmail.com,01597 811645,07974 669447,,Raymond T Rees,Retired,Ash Villa,East Street,RHAYADER,,LD6 5DS,United Kingdom,Sales Enquiry,LDH/Cambrian,,0-3 Months,,Bhl,Yes,Yes,Yes,Yes,None,No
144,8,Mr,Raymond,Rees,adrian.rees@hotmail.com,01597 811176,07974 669447,,Raymond T Rees,Partner,42 Maes Brenin,,RHAYADER,,LD6 5EP,United Kingdom,Product Test,LDH/Cambrian,,4-6 Months,,Current Backhoe 860 user,Yes,Yes,Yes,Yes,None,No
145,8,Mr,Gareth,Davies,gareth_davies38@hotmail.co.uk,07532 089008,07532 089008,,G Davies contracting,Owner operator,Ty-Fry Farm,New Bethel,BLACKWOOD,,NP122BA,United Kingdom,Sales Enquiry,LDH/Cambrian,,Immediately,,Dumpers,Yes,Yes,Yes,Yes,None,No
146,8,Mr,Simon,Lacey,laceysj17@yahoo.co.uk,07854 057756,07855 057756,,Simon lacey construction,Builder,12 Shannon Close,Pontllanfraith,CAERPHILLY,,NP122FW,United Kingdom,Sales Enquiry,LDH/Cambrian,,Immediately,,Dumpers,Yes,Yes,Yes,Yes,None,No
147,8,Mr,Mark,Robinson,mark@rss-ltd.co.uk,07831 516253,,,Recycled Stone & Soils Ltd,Director,The Old Brickworks,Uskvale Park Estste,PONTYPOOL,,NP4 0HD,United Kingdom,Sales Enquiry,LDH/Cambrian,,Immediately,,,Yes,Yes,Yes,Yes,None,No
148,8,Mr,Gary,Morgan,garymorgan444@hotmail.co.uk,01633 868080,,,Gary Morgan Plant Repairs,Director,44 Clark Avenue,Pontnewydd,CWMBRAN,,NP44 1RZ,United Kingdom,Sales Enquiry,LDH/Cambrian,,Immediately,,,Yes,Yes,Yes,Yes,None,No
149,8,Mr,Edward,Butler,eddbutler@outlook.com,07970 570239,,,Eiran Civil Engineering Ltd,Civil engineer contractor,8 Commodore Lane,,CWMBRAN,,NP44 8JN,United Kingdom,Sales Enquiry,LDH/Cambrian,,0-3 Months,6MCR,Had a 6MCR demo at Plantworx,Yes,Yes,Yes,Yes,None,No
150,8,Mr,Craig,Shepherdson,craigshepherdson9@gmail.com,07813 776985,07813 776985,,RW Construction,Plant operator,49,Coed Camlas,PONTYPOOL,Torfean,NP48RP,United Kingdom,Sales Enquiry,LDH/Cambrian,,Immediately,,,Yes,Yes,Yes,Yes,None,No
151,8,Mr,Ryan,Layman,layman.planthire@hotmail.co.uk,07787 686049,,,R layman landscaping & groundworks Ltd,Groundworker,17 Hospital Rd,,HENGOED,,CF82 8DG,United Kingdom,Sales Enquiry,LDH/Cambrian,,Immediately,,,Yes,Yes,Yes,Yes,None,No
152,8,Mr,John,Morgan,jamconstruction@btconnect.com,01597 825060,,,J A Morgan Construction Limited,,Noyadd,Trefonen Lane,Llandrindod Wells,,LD1 5PE,United Kingdom,Sales Enquiry,LDH/Cambrian,,0-3 Months,,All products,Yes,Yes,Yes,Yes,None,No
153,8,Mr,Marcus,Kynaston,mkynaston@bergstromeurope.com,01443 862122,,,Beergstrom Europe Limited,Sales Manager,41 Sycamore Road,Dyffryn Business Park,YSTRAD MYNACH,Hengoed,CF827RJ,United Kingdom,Sales Enquiry,LDH/Cambrian,,Immediately,,Supplier - took range brochure to show team the end product,Yes,Yes,Yes,Yes,None,No
154,9,Mr,Richard,Griffiths,tracy.coulson@hotmail.co.uk,07968 173850,07968 173850,,Richard Griffiths,Self Employed Builder,86 COMMON LANE,SHELDON,BIRMINGHAM,,B26 3DA,United Kingdom,Sales Enquiry,Murley,,Immediately,,,Yes,Yes,Yes,Yes,None,No
155,9,Mr,Steven,Manley,stemanley@gmail.com,,07825 638334,,ESS SAFEFORCE,Technician,81 Stant Road,,BIRMINGHAM,,B43 SHH,United Kingdom,Sales Enquiry,Murley,,Immediately,,,Yes,Yes,Yes,Yes,None,No
156,9,Mr,Philip,Pugh,phillippugh1951@google.com,,,,Armac demolition,Operator,Arden Brickworks,Coventry Road,SOLIHULL,,B92 0DY,United Kingdom,Sales Enquiry,Murley,,0-3 Months,,,Yes,Yes,Yes,Yes,None,No
157,9,Mr,John,Chesters,a.chesters1@gmail.com,07791 893837,07791 893837,,J Chesters plant,Plant manager,19 Brett's Hall Est,Ansley Common,NUNEATON,,CV100PN,United Kingdom,Sales Enquiry,Murley,,Immediately,,990,Yes,Yes,Yes,Yes,None,No
158,9,Ms,Jackie,Paul,a.chesters1@gmail.com,07791 893837,07791 893837,,Jchestrrs,Partner,19 Brett's Hall Est,Ansley Common,NUNEATON,,CV100PN,United Kingdom,Sales Enquiry,Murley,,Immediately,,990,Yes,Yes,Yes,Yes,None,No
159,9,Mr,David,Burnham,dbshenton@icloud.com,07721 953377,07722 953377,,David Burnham,Manager,5 Pump Street,Shenton,NUNEATON,,CV13 6DL,United Kingdom,Sales Enquiry,Murley,,0-3 Months,,Excavators,Yes,Yes,Yes,Yes,None,No
160,9,Mr,Yangsong,Zou,yszou@yahoo.co.uk,01788 555058,04479 70975377,,julay imports limited,Director,Eastlands Court,St Peters Road,RUGBY,,CV21 3QP,United Kingdom,Sales Enquiry,Murley,,0-3 Months,,,Yes,Yes,Yes,Yes,None,No
161,9,Mr,Yangsong,Zou,yszou@yahoo.co.uk,01788 555058,04479 70975377,,julay imports limited,Director,Eastlands Court,St Peters Road,RUGBY,,CV21 3QP,United Kingdom,Customer Service,Murley,,12+ Months,,Ford to contact over engine pirchase,Yes,Yes,Yes,Yes,None,No
162,9,Mr,Edward,Ogden,edward001@outlook.com,01788 832668,,,CB Grounds Maintenance,Managing Director,Crantock,Main Street,RUGBY,,CV23 0JA,United Kingdom,Customer Service,Murley,,12+ Months,,,Yes,Yes,Yes,Yes,None,No
163,9,Mr,David,Faulkner,chall20@btinternet.com,07957 076602,07957 076601,,R&K,Farmer,3 Heath Terrace,Beausale,WARWICK,,CV35 7NR,United Kingdom,Sales Enquiry,Murley,,Immediately,,,Yes,Yes,Yes,Yes,None,No
164,9,Mr,Brendan,Breheny,brendan@bpbplant.com,01926 842130,07860 322268,,Brendan PBreheny ltd,MD,Oakhouse Farm,Old Warwick Rd,WARWICK,,CV357AX,United Kingdom,Sales Enquiry,Murley,,Immediately,,6mcr,Yes,Yes,Yes,Yes,None,No
165,9,Mr,Russell,Godwin,sales@earthcon.co.uk,07787 185268,07788 185268,,Avon Scaffolding,MD,Langley Farm,Birmingham Road,STRATFORD UPON AVON,,CV37 0RN,United Kingdom,Sales Enquiry,Murley,,Immediately,,6mcr,Yes,Yes,Yes,Yes,None,No
166,9,Mr,Ray,Gillam,normancontracts@fsmail.net,01295 770205,,,Norman Contracts,Agricultural Contractor,Warf Road,Fenny Compton,SOUTHAM,,CV47 2XD,United Kingdom,Sales Enquiry,Murley,,Immediately,,,Yes,Yes,Yes,Yes,None,No
167,9,Mr,Daniel,Line,daniel@b-line-plant.co.uk,07769 687216,,,B.Line Plant Ltd,Director,Baird Park,Brickyard Road,NAPTON,Warks,CV47 8NT,United Kingdom,Sales Enquiry,Murley,,0-3 Months,,General plant,Yes,Yes,Yes,Yes,None,No
168,9,Mr,Adrian,Cook,biglogjoe@hotmail.co.uk,07827 479333,07828 479333,,Heartwood tree surgeons,Director,Wychwood,Northbrook Road,COVENTRY,,CV6 2AJ,United Kingdom,Sales Enquiry,Murley,,0-3 Months,,Mcr possible. Has 11t unit at the minute,Yes,Yes,Yes,Yes,None,No
169,9,Mr,Derek,Pointon,derekpointon@me.com,01676 522972,07973 111144,,Derek Pointon & Co,CEO,Rock Farm,Back Lane,COVENTRY,,CV7 7LD,United Kingdom,Sales Enquiry,Murley,,Immediately,,360,Yes,Yes,Yes,Yes,None,No
170,9,Mr,Stephen,Edwards,jedwards969@googlemail.com,01676 532151,,,Econ plant hire ltd,Director,Rose Cottage,Meriden Road,COVENTRY,,CV7 8DX,United Kingdom,Sales Enquiry,Murley,,0-3 Months,,,Yes,Yes,Yes,Yes,None,No
171,9,Mr,Peter,Royce,peterroyce1966@live.com,07778 169869,07778 169869,,P royce plant hire,Ground worker,Pooleys Croft,Square Lane,COVENTRY,Warks,CV78AX,United Kingdom,Sales Enquiry,Murley,,0-3 Months,,,Yes,Yes,Yes,Yes,None,No
172,9,Mr,Sean,Duffy,sduffy@midlandcsb.co.uk,01926 484530,,,MIDLAND CSB LTD,Operations Director,HOLLY COURT,HOLLY FARM BUSINESS PARK,KENILWORTH,,CV8 1NP,United Kingdom,Sales Enquiry,Murley,,0-3 Months,,Mimi dumper,Yes,Yes,Yes,Yes,None,No
173,9,Mr,Trevor,Davies,bankfarm@tinyworld.co.uk,07973 710351,07974 710351,,BANK FARM HOLIDAY PARK,CARAVAN PARK PROPRIETOR,BANK FARM,ARLEY,BEWDLEY,,DY12 3ND,United Kingdom,Sales Enquiry,Murley,,0-3 Months,,6 mcr  wants to try one will travel to Coventry as soon as we have it there,Yes,Yes,Yes,Yes,None,No
174,9,Mr,Mark,Peake,mark@tdr-transport.com,07773 368333,07773 368333,,,,Peartree lane,Dudley,West Mids,,Dy2 0UX,,Sales Enquiry,Murley,,0-3 Months,,1 ton dumper will buy shortly . He is based in uttoxeter near JCB factory,Yes,Yes,Yes,Yes,None,No
175,9,Mr,Andrew,Jones,sales@qualityusedmachinery.com,01873 860334,,,ANDREW JONES MACHINERY,OWNER,OLD MILL BARN,LONGTOWN,HEREFORD,,HR2 0LJ,United Kingdom,Sales Enquiry,Murley,,0-3 Months,,,Yes,Yes,Yes,Yes,None,No
176,9,Mr,Colin,Jones,sales@qualityusedmachinery.com,01873 860334,,,ANDREW JONES MACHINERY,Operator,OLD MILL BARN,LONGTOWN,HEREFORD,,HR2 0LJ,United Kingdom,Sales Enquiry,Murley,,0-3 Months,,,Yes,Yes,Yes,Yes,None,No
177,9,Mr,Robert,Hughes,rob.thebuilder@icloud.com,01686 668176,,,R n hughes,Builder,The Coachouse,,MONTGOMERY,,SY15 6HQ,United Kingdom,Sales Enquiry,Murley,,0-3 Months,,1 ton dumper . Had a thwaites previously . Dealer to follow up BA,Yes,Yes,Yes,Yes,None,No
178,9,Mr,Sean,Vincent,s.vincent898@btinternet.com,01686 650118,07811 173376,,Vincent plant ltd,Managing director,11 Brynteg,Bettws Cedewain,NEWTOWN,,SY163DU,United Kingdom,Sales Enquiry,Murley,,Immediately,6MCR,Demo of 6MCR at plantworx,Yes,Yes,Yes,Yes,None,No
179,9,Mr,Kevin,Roberts,kevroberts77@hotmail.co.uk,07967 814292,07967 814292,,K E Roberts,Contractors,Pantycoed,Cwmgolau,WELSHPOOL,,SY21 9EZ,United Kingdom,Sales Enquiry,Murley,,0-3 Months,,"Bhl, excavators",Yes,Yes,Yes,Yes,None,No
180,9,Mr,Shane,Pugh,gremillington@kerb-laying.co.uk,01743 891382,,,GRE Millington Contractors Ltd,Operative,Bryn Awel,Bentlawnt,SHREWSBURY,,SY5 0ES,United Kingdom,Sales Enquiry,Murley,,4-6 Months,,,Yes,Yes,Yes,Yes,None,No
181,9,Mr,Graham,Bennett,kelly@bennetthomes.co.uk,01743 718414,,,Bennett Homes Shropshire Limited,Director,Netley Old Hall Farm,Dorrington,SHREWSBURY,,SY5 7JY,United Kingdom,Sales Enquiry,Murley,,Immediately,,,Yes,Yes,Yes,Yes,None,No
182,9,Mr,Matthew,Bishop,mbishop45@btinternet.com,01743 891285,,,da bishop contractors,Trainee,1 Glen View,Bentlawnt,SHREWSBURY,,SY50ER,United Kingdom,Sales Enquiry,Murley,,0-3 Months,,"MCR , mwr",Yes,Yes,Yes,Yes,None,No
183,9,Mr,Martin,Jones,martin-hirequipment@hotmail.co.uk,07870 255821,,,hire equipment (ludlow) ltd,Manager,Hire Equipment (Ludlow)ltd,The Hire Centre,LUDLOW,,SY8 1XF,United Kingdom,Sales Enquiry,Murley,,0-3 Months,,Dumpers and MCR,Yes,Yes,Yes,Yes,None,No
184,9,Mr,Andrew,Davies,andysmowerservicing@gmail.com,07974 319822,07974 319822,,Andy's mower servicing,Sole trader,1 Bitterley Court Lodge Bitter,Shropshire,LUDLOW,,SY8 3HL,United Kingdom,Sales Enquiry,Murley,,0-3 Months,,,Yes,Yes,Yes,Yes,None,No
185,9,Mr,Barry,Westby,westbyfamily@hotmail.com,01386 831316,07831 846035,,B.D.Westbygroundworkscontractors,Business Owner,Gallipot House,Evesham Rd Broadway,EVESHAM,,WR12 7HU,United Kingdom,Sales Enquiry,Murley,,Immediately,,Dumpers,Yes,Yes,Yes,Yes,None,No
186,9,Mr,Rob,Shail,rob@rms-s.co.uk,07813 007285,07813 007285,,RMS SERVICES,MD,Patches Barn,,ALFRICK,Worcs,WR6 5HH,United Kingdom,Sales Enquiry,Murley,,0-3 Months,,Saw us in the press & wanted to have a closer look,Yes,Yes,Yes,Yes,None,No
187,9,Mr,Nigel,White,nigelwhite@whiteplanthire.com,01905 380003,07891 345747,,WHITE PLANT HIRE,OWNER,THE FIVE ACRES,OLD TURNPIKE ROAD,WORCESTER,,WR7 4AG,United Kingdom,Sales Enquiry,Murley,,Immediately,,Murley dealer,Yes,Yes,Yes,Yes,None,No
188,9,Mr,James,Ford,info@jhfcontractors.co.uk,,01905 391132,,Jhf Contractors,Driver,Saleway,,DROITWICH,,WR9 7JY,United Kingdom,Sales Enquiry,Murley,,0-3 Months,,,Yes,Yes,Yes,Yes,None,No
189,9,Mr,Matthew,Perry,mjpgroundworks@outlook.com,07855 168057,,,Mjp groundworks & construction ltd,Ceo,4,Auvergne Drive,BRIDGNORTH,,WV16 5AP,United Kingdom,Sales Enquiry,Murley,,0-3 Months,,Small excavator interest 6mcr may be too big,Yes,Yes,Yes,Yes,None,No
190,9,Mr,Matthew,Perry,mjpgroundworks@outlook.com,07855 168057,,,Mjp groundworks & construction ltd,Ceo,4,Auvergne Drive,BRIDGNORTH,,WV16 5AP,United Kingdom,Sales Enquiry,Murley,,0-3 Months,,,Yes,Yes,Yes,Yes,None,No
191,9,Mr,Nevilie,Taylor,debbietaylor4@aol.com,01299 861317,07831 889768,,NJ and DJ Taylor,Owner,Little London,Alveley,SHROPSHIRE,,WV15 6HZ,United Kingdom,Sales Enquiry,Murley,,Immediately,,Backhoes,Yes,Yes,Yes,Yes,None,No
192,9,Mr,Alex,Seys,,01608 663300,07964 087511,,We Sutton Ltd,Manager,7 Brooke Cottages,Shipston On Stour,Warwickshire,,CV36 5AU,United Kingdom,Sales Enquiry,Murley,,0-3 Months,,,Yes,Yes,Yes,Yes,None,No
193,9,Mr,Rasti,Senaj,rastisenaj@gmail.com,07577 486948,,,R&J Janes,Driver,53 Derwent,,TAMWORTH,,B772LD,United Kingdom,Sales Enquiry,Murley,,0-3 Months,,Mwr9,Yes,Yes,Yes,Yes,None,No
194,9,Mr,Richard,Payne,richard.payne@westonbodyhardware.com,01527 516060,,,Weston Body Hardware Ltd,Sales Engineer,Crossgate Road,Park Farm,REDDITCH,,B98 7SN,United Kingdom,Sales Enquiry,Murley,,Immediately,,,Yes,Yes,Yes,Yes,None,No
195,9,Mr,Christopher,Scott,chris.scott@bridgestone.eu,07989 359071,07989 359071,,Bridgestone Tyres,Lead Field Engineer,Bridgestone House,Athena Drive,WARWICK,,CV34 6UX,United Kingdom,Sales Enquiry,Murley,,0-3 Months,,,Yes,Yes,Yes,Yes,None,No
196,9,Mr,Peter,Moulding,peter.moulding@bridgestone.eu,07738 808457,,,Bridgestone UK,Lead Field Engineer,Athena Drive,Tachbrook Park,WARWICK,,CV34 6UX,United Kingdom,Sales Enquiry,Murley,,0-3 Months,,,Yes,Yes,Yes,Yes,None,No
197,10,Mr,Brian,Matley,brian.matley@garic.o.uk,07460 896503,07460 896503,,Garic Limited,Workshop Supervisor,Kingfisher Park Aviation Road,Pilsworth,BURY,,BL9 8GD,United Kingdom,Sales Enquiry,Norwest,,0-3 Months,,,Yes,Yes,Yes,Yes,None,No
198,10,Mr,Nigel,Travers,cathtravers@btinternet.com,01244 620213,,,Grosvenor farms,Farm manager,Ponderosa,Lea Lane,CHESTER,,CH3 6JQ,United Kingdom,Sales Enquiry,Norwest,,12+ Months,,Mcr and mwr,Yes,Yes,Yes,Yes,None,No
199,10,Mr,John,Phoneix,jkgroundworks@yahoo.co.uk,77145 12332,01352 741394,,Jk groundworks,Groundworker,1 Ruby House,The Nant,MOLD,Flintshire,CH75QB,United Kingdom,Sales Enquiry,Norwest,,Immediately,,Browsing the range,Yes,Yes,Yes,Yes,None,No
200,10,Mr,Lee,Woodgate,woodgate.engineering@gmail.com,01606 784915,07531 458809,,Woodgate Engineering,Director,1 Grange Avenue,Barnton,NORTHWICH,,CW8 4PB,United Kingdom,Sales Enquiry,Norwest,,Immediately,,,Yes,Yes,Yes,Yes,None,No
201,10,Mr,Paul,Argent,rpaphotography@ymail.com,07813 064590,,,RPA Media,RPA Media/EARTHMOVERS Magazine,9,Maes Cantaba,RUTHIN,,LL15 1YP,United Kingdom,Sales Enquiry,Norwest,,Immediately,,,Yes,Yes,Yes,Yes,None,No
202,10,Mr,Bryn,Jones,rbjonesltd@gmail.com,07884 098442,,,R B Jones Ltd,Director,30 Lon Tywysog,,DENBIGH,,LL16 4AG,United Kingdom,Sales Enquiry,Norwest,,0-3 Months,,,Yes,Yes,Yes,Yes,None,No
203,10,Mr,John,Morris,john_morris@live.co.uk,07925 876001,,,John G Morris Ltd,Director,Pen Isa'r Waen,Llandyrnog,DENBIGH,,LL16 4HL,United Kingdom,Sales Enquiry,Norwest,,0-3 Months,,,Yes,Yes,No,Yes,None,No
204,10,Mr,Ifor Wyn,Jones,iforjones50@gmail.com,01690 770263,07860 355966,,C.T.Roberts Plant Hire LTD,Plant Operator,Fron Farm,Ysbyty Ifan,BETWS-Y-COED,,LL24 ONY,United Kingdom,Sales Enquiry,Norwest,,0-3 Months,,,Yes,Yes,Yes,Yes,None,No
205,10,Mr,Hadyn,Jones,gtjones@btconnect.com,01492 640483,,,TREFOR JONES & SONS,Operator,TYN Y FFORDD CARMEL,,LLANRWST,,LL26 0PD,United Kingdom,Sales Enquiry,Norwest,,Immediately,,Bhl,Yes,Yes,Yes,Yes,None,No
206,10,Mr,Eifion,Jones,jeifion@outlook.com,01492 531546,,,Conwy County Borough Council,Roadsweeper,10 Nant-Y-Glyn Avenue,,COLWYN BAY,,LL29 7UH,United Kingdom,Sales Enquiry,Norwest,,0-3 Months,,,Yes,Yes,Yes,Yes,None,No
207,10,Mr,Alun,Lloyd,marylloyd@btconnect.com,01341 423017,,,A & M LLOYD PLANT HIRE LTD,DIRECTOR,LLWYN BACH,BALA ROAD,DOLGELLAU,,LL40 2YF,United Kingdom,Sales Enquiry,Norwest,,0-3 Months,,Runs half a dozen six ton dumpers . Now getting lots of requests for cab versions . His competitors have Wacker machines and customers will pay 70 a week more for these BA,Yes,Yes,Yes,Yes,None,No
208,10,Mr,Francis,Marx,francis.marx@srbe.co.uk,07733 326192,07733 326192,,SRBE,MD,10 Bond Avenue,,MILTON KEYNES,,MK1 1SW,United Kingdom,Sales Enquiry,Norwest,,0-3 Months,,,Yes,Yes,Yes,Yes,None,No
209,10,Mr,Jim,Riley,jwe.riley76@gmail.com,01260 252285,,,Fairway Landscapes,Operator,Brown Low Farm,Sutton,MACCLESFIELD,,SK11 0NA,United Kingdom,Sales Enquiry,Norwest,,0-3 Months,,,Yes,Yes,Yes,Yes,None,No
210,10,Mr,Ron,Blackhurst,ron@tufftruk.co.uk,,,,TUFFTRUK LTD,MANAGING DIRECTOR,The Croft,Cross St,SHEEN NR BUXTON,Derbyshire,SK17 0EU,United Kingdom,Sales Enquiry,Norwest,,0-3 Months,,,Yes,Yes,Yes,Yes,None,No
211,10,Mr,Derren,Taffee,beth.edwards@belle-group.co.uk,,,,Altrad Belle,,Belle Engineering (Sheen) Ltd,Sheen Nr Buxton,DERBYSHIRE,,SK17 0EU,United Kingdom,Sales Enquiry,Norwest,,0-3 Months,,,Yes,Yes,Yes,Yes,None,No
212,10,Mr,Graham,Stott,graham@briggs.myzen.co.uk,01422 372515,07941 540602,,BRIGS AND PARTNER LTD,Depot Manager,THE STORTH,HUDDERSFIELD RD,ELLAND,Yorks,SK6 HX5 9J,United Kingdom,Sales Enquiry,Norwest,,0-3 Months,,,Yes,Yes,Yes,Yes,None,No
213,10,Mr,Darren,Woods,stim67@ntlworld.com,07976 123456,,,Whitehouse,Engineer,Flat 1,Pearce House,STAFFORD,,ST16 3QB,United Kingdom,Sales Enquiry,Norwest,,0-3 Months,,,Yes,Yes,Yes,Yes,None,No
214,10,Mr,Tim,Starkey,stim67@ntlworld.com,07976 123456,07779 7976020,,Whitehouse,Operator,Flat 1,Pearce House,STAFFORD,,ST16 3QB,United Kingdom,Sales Enquiry,Norwest,,0-3 Months,,,Yes,Yes,Yes,Yes,None,No
215,10,Mr,Tony,Rosenthal,,0870 242 8800,,,Kirkby Tyres Ltd,,Speke Hall Avenue,,LIVERPOOL,,L24 1UU,United Kingdom,Sales Enquiry,Norwest,,0-3 Months,,,Yes,Yes,Yes,Yes,None,No
216,10,Mr,Karl,Goodwin,,,,,JC Bamford,Fitter,Lakeside Works,Rocester,UTTOXETER,,ST14 5JU,United Kingdom,Sales Enquiry,Norwest,,Immediately,,,Yes,Yes,Yes,Yes,None,No
217,10,Mr,Kevin,Flowers,alison.heath@mayflowernorthwest.co.uk,01270 766433,,,Mayflower North West Ltd,Director,6 Rowan Close,,SANDBACH,,CW11 1XN,United Kingdom,Sales Enquiry,Norwest,,0-3 Months,,MWR MCR TV1200,Yes,Yes,Yes,Yes,None,No
218,10,Mr,Keith,Wells,keith@wells-crewe.com,01270 750899,07848 453689,,A&T,Partner,160 Sydney Road,,CREWE,,CW1 5NF,United Kingdom,Sales Enquiry,Norwest,,Immediately,,General plant,Yes,Yes,Yes,Yes,None,No
219,10,Mr,Michael,Welsby,lizzymiller94@hotmail.co.uk,07467 946426,,,L and M groundworks,Owner,The Hillocks,Blue Stone Lane,ORMSKIRK,Lancs,L402RJ,United Kingdom,Sales Enquiry,Norwest,,0-3 Months,,,Yes,Yes,Yes,Yes,None,No
220,10,Mr,Tony,Driver,janetom@virginmedia.com,,07970 529090,,Tomlinson Plant,Yardman,Longworth Lane,Egerton,BOLTON,,BL7 9QZ,United Kingdom,Sales Enquiry,Norwest,,0-3 Months,,,Yes,Yes,Yes,Yes,None,No
221,10,Mr,Tony,Driver,janetom@virginmedia.com,,07970 529090,,Tomlinson Plant,Yardman,Longworth Lane,Egerton,BOLTON,,BL7 9QZ,United Kingdom,Sales Enquiry,Norwest,,Immediately,,,Yes,Yes,Yes,Yes,None,No
222,10,Mr,Mark,Griffiths,mgriffiths001@btinternet.com,07469 031041,,,_______,Operations,37 Portland Place,Waterhouses,STOKE-ON-TRENT,Staffs,ST10 3HU,United Kingdom,Sales Enquiry,Norwest,,0-3 Months,,,Yes,Yes,Yes,Yes,None,No
223,10,Mr,Adam,Varley,adam.varley@live.co.uk,07885 448321,,,SV Plant Hire,Technician,Waterloo Farm Beamhurst,,STOKE ON TRENT,,ST147FL,United Kingdom,Sales Enquiry,Norwest,,Immediately,,,Yes,Yes,Yes,Yes,None,No
224,10,Mr,Michael,Wilson,,,07860 140536,,JP & MP WILSON,Owner Driver,33 Cuerdley Road,Penketh,Warrington,Cheshsire,WA5 2UB,United Kingdom,Sales Enquiry,Norwest,,Immediately,6MCR,Demo of 6MCR at plantworx,Yes,Yes,Yes,Yes,None,No
225,11,Mr,Michael,Greib,michael.greib@elkamet.de,+49 6461 930 344,,,Elkamet Kunststofftechnik GmbH,Project Manager,Buderusstrae 6,,DAUTPHETAL,,35232,Germany,Sales Enquiry,Overseas,,Immediately,,,Yes,Yes,Yes,Yes,None,No
226,11,Mr,Richard,Hall Hall,r.hallhall@roquetgroup.com,34938 124664,,,Roquet Hydraulics,Commercial Director,Figueras 31,,TONA,,8551,Spain,Sales Enquiry,Overseas,,0-3 Months,,,Yes,Yes,Yes,Yes,None,No
227,11,Mr,Juanjo,Perez,j.perez@roquetgroup.com,+34 93 8124664,,,Roquet Hydraulics,Technical Director,Figueras 91,,TONA (BARCELONA),,8551,Spain,Sales Enquiry,Overseas,,Immediately,,,Yes,Yes,Yes,Yes,None,No
228,11,Mr,Vincent,Remillard,vremillard@famictech.com,+1 514 748 8050,,,Famic Technologies inc.,Corporate Accounts Manager,350-9999 Cavendish,,MONTREAL,Quebec,H4M 2X5,Canada,Sales Enquiry,Overseas,,0-3 Months,,,Yes,Yes,Yes,Yes,None,No
229,11,Mr,Pailia,Vileuks,vilcuka@gmail.com,0863 762 504,,,GKPH,Driver,Gues Au Mal,,,,,United Kingdom,Sales Enquiry,Overseas,,0-3 Months,,,Yes,Yes,Yes,Yes,None,No
230,11,Mr,Rosel,Frederic,,,,,Sodineg,Owner,,,,,,United Kingdom,Sales Enquiry,Overseas,,0-3 Months,,Asking about used machines,Yes,Yes,Yes,Yes,None,No
231,12,Mr,Tom,Stone,tom.stone@ukipme.com,,,,IVT (International Vehicle Technology),Editor,,,,,,United Kingdom,Press,Press,,Immediately,,,Yes,Yes,Yes,Yes,None,No
232,13,Mr,Mr,Not,,,07770 234532,,R and M groundworks,,.,9 the green,.,Chinnor,.,United Kingdom,Sales Enquiry,Promac,,12+ Months,,Ox39 4AhPlease send 1 and 2 tonndimper pricing,Yes,Yes,Yes,Yes,None,No
233,13,Mr,Mike,Stewart,mike.stewart@babcockinternational.com,,07957 180338,,Babcock International,,33 Wigmore Street,,London,,W1U 1QX,United Kingdom,Sales Enquiry,Promac,,0-3 Months,,Up to 5tonne tracked dumper that can also tow a trailer. Looking for a flatter dumper that can also carry loads. Needs to be low ground pressure. Can we offer anything?,No,Yes,Yes,No,None,No
234,13,Mr,Padraig,Healy,padraig@cleraune.co.uk,01582 793787,07958 738841,,Cleraune Plant Training Ltd,Managing Director,Flowers Farm,Hemel Hempstead Road,REDBOURN,Herts,AL3 7AE,United Kingdom,Product Test,Promac,,12+ Months,,Training company,Yes,Yes,Yes,Yes,None,No
235,13,Mr,Padraig,Healy,padraig@cleraune.co.uk,01582 793787,07958 738841,,Cleraune Plant Training Ltd,Managing Director,Flowers Farm,Hemel Hempstead Road,REDBOURN,Herts,AL3 7AE,United Kingdom,Sales Enquiry,Promac,,0-3 Months,,Very interested in a 3 ton dumper and a keen price asap BA,Yes,Yes,Yes,Yes,None,No
236,13,Mr,Michael,Healy,padraig@cleraune.co.uk,01582 793787,,,Cleraune Plant & Crane Hire Ltd,Plant Operator,Flowers Farm,Hemel Hempstead Road,REDBOURN,Herts,AL3 7AE,United Kingdom,Sales Enquiry,Promac,,Immediately,,General plant,Yes,Yes,Yes,Yes,None,No
237,13,Mr,Daniel,Clough,dan@southmay.co.uk,07919 351302,,,Southmay construction,Partner,30 Hillside Road,,SOUTHMINSTER,Essex,CM0 7AL,United Kingdom,Sales Enquiry,Promac,,Immediately,,,Yes,Yes,Yes,Yes,None,No
238,13,Mr,Luke,Jarrett,luke.jarrett@tdrgroundworks.co.uk,01376 520235,07581 371600,,TDR GROUNDWORKS,Plant Manager,Unit 22,Swanvale Estate,WITHAM,,CM8 3DH,United Kingdom,Sales Enquiry,Promac,,12+ Months,,6mcr,Yes,Yes,Yes,Yes,None,No
239,13,Mr,John,Lane,jclskips@talktalk.net,01787 828594,07910 966455,,Bluestone Recycling Limited,Company Director,Deans Cottage,Oak Road,HALSTEAD,,CO9 2RT,United Kingdom,Brochure Request,Promac,,4-6 Months,,General product interest,Yes,Yes,Yes,Yes,None,No
240,13,Mr,Adrian,Loughman,aloughman@tloughman.com,01322 400500,,,T Loughman & co ltd,Director,Belvedere Business Park,Crabtree Manorway South,BELVEDERE,,DA17 6AH,United Kingdom,Sales Enquiry,Promac,,0-3 Months,,,Yes,Yes,Yes,Yes,None,No
241,13,Mr,Ian,Powell,ipowell@laingorourke.com,07342 026285,07342 026285,,Laing O'Rourke,Estimating,Bridge Place 1&2,Anchor Boulevard,DARTFORD,Kent,DA26SN,United Kingdom,Sales Enquiry,Promac,,0-3 Months,,,Yes,Yes,Yes,Yes,None,No
242,13,Mr,Anthonie,Marais,anthonie@hireservices.tv,01895 236537,,,Thames Valley Hire Services,Branch Manager,30 Oxford Road,,UXBRIDGE,,DQUB9,United Kingdom,Sales Enquiry,Promac,,Immediately,,,Yes,Yes,Yes,Yes,None,No
243,13,Mr,Matt,Thoumine,mattt@project.gg,01481 242 047,07781 142 047,,Project Hire & Sale Ltd,Operations Director,PO Box 88,Bulwer Avenue,GUERNSEY,,GY1 3EE,United Kingdom,Sales Enquiry,Promac,,0-3 Months,,,Yes,Yes,Yes,Yes,None,No
244,13,Mr,Sierd Jan,Looijenga,janl@project.gg,01481 242047,07781 417183,,Project. Hire and Sale (Guernsey) Limited,Director,P O Box 88,Bulwer Avenue,ST SAMPSON'S,,GY1 3EE,United Kingdom,Sales Enquiry,Promac,,0-3 Months,,,Yes,Yes,Yes,Yes,None,No
245,13,Mr,Jeremy,Marquis,mokar@cwgsy.net,01481 265056,07781 437112,,J Marquis plant Hire Ltd,Company Director,Les Eperons Primrose Court,la Grande rue St Saviours,GUERNSEY CHANNEL ISLANDS,,GY79PP,United Kingdom,Sales Enquiry,Promac,,0-3 Months,,,Yes,Yes,Yes,Yes,None,No
246,13,Mr,Mick,Jehan,mjplanthire@yahoo.co.uk,01534 854312,07797 721061,,M J Plant Hire Ltd.,Managing Director,Stanley Lodge,rue de la Mare des Reines,ST MARTIN,Channel Islands,JE3 6HB,United Kingdom,Sales Enquiry,Promac,,Immediately,,,Yes,Yes,Yes,Yes,None,No
247,13,Mr,Richard,Rowell,richard.rowell@prorailservices.co.uk,07780 694454,07780 694454,,Pro Rail Services Ltd.,Rail Operations Manager,Pro Rail Services Ltd,Abbey House,"BROOKLANDS, WEYBRIDGE",Surrey,KT13 0TT,United Kingdom,Sales Enquiry,Promac,,0-3 Months,6MCR,"Mwr for rail use, 6MCR demo by colleague Jamie Durrant",Yes,Yes,Yes,Yes,None,No
248,13,Mr,Eamonn,Maloney,eamonn.maloney@prorailservices.co.uk,07748 147278,07749 147278,,Pro Rail Services Ltd.,Operations Director,Pro Rail Services Ltd,Abbey House,"BROOKLANDS, WEYBRIDGE",Surrey,KT13 0TT,United Kingdom,Sales Enquiry,Promac,,0-3 Months,6MCR,Mcr/mwr for rail use. Very interested. 6MCR demo by colleague Jamie Durrant,Yes,Yes,Yes,Yes,None,No
249,13,Mr,Marcus,Ching,marcus.c@addex-group.com,0845 0500 595,,,Addex Group,Group Technical Sales Manager,Unit C,Longmead Business Centre,EPSOM,,KT19 9QQ,United Kingdom,Sales Enquiry,Promac,,0-3 Months,,,Yes,Yes,Yes,Yes,None,No
250,13,Mr,Wassim,Rahim,info@tjcpant.co.uk,,,,TJC Sales Ltd,Export area manager,Unit 2 Hollingdon Depot,Unit 2,SOULBURY,,LU7 0DF,United Kingdom,Sales Enquiry,Promac,,0-3 Months,,,Yes,Yes,Yes,Yes,None,No
251,13,Mr,Tom,Vintner,tv@meadswayconstruction.co.uk,01234 766644,,,Meadsway Construction Ltd,Director,Hill House Barns,Beancroft Rd,MARSTON,Beds,MK43 0QF,United Kingdom,Sales Enquiry,Promac,,4-6 Months,,Bhl. Has an old unit and may replace soon,Yes,Yes,Yes,Yes,None,No
252,13,Mr,Martin,Devonshire,martin@devonshirediggers.co.uk,07711 764249,07711 764249,,Devonshire Diggers,Director,26 Salisbury Road,,FLITWICK,Beds,MK451UD,United Kingdom,Sales Enquiry,Promac,,0-3 Months,TLB890,TLB890 demo at plantworx,Yes,Yes,Yes,Yes,None,No
253,13,Mr,Dave,Walsh,walsh2910@gmail.com,079830 11447,079830 11448,,Walsh Contracts,Foreman,70 Deanscroft Avenue,,LONDON,,NW9 8EN,United Kingdom,Sales Enquiry,Promac,,0-3 Months,,,Yes,Yes,Yes,Yes,None,No
254,13,Mr,Colin,Scane,scaneandsons@gmail.com,07940 372299,,,Scane & sons,Director,Little Acres Farm,Cuxham,OXFORD,Oxon,OX49 5ND,United Kingdom,Sales Enquiry,Promac,,0-3 Months,,,Yes,Yes,Yes,Yes,None,No
255,13,Mr,Jim,Adams,rldavies@mmm.com,,,,3M,,3m Centre,Cain Road,BRACKNELL,,RG12 8HT,United Kingdom,Customer Service,Promac,,Immediately,,3M safe maintenance solution working at height,Yes,Yes,Yes,Yes,None,No
256,13,Mr,Steven,Rush,service24@hotmail.co.uk,0118 975 2355,07801 857324,,Renault Trucks Reading,Workshop Supervisor,Bennet Road,,READING,,RG2 8PU,United Kingdom,Sales Enquiry,Promac,,0-3 Months,,All,Yes,Yes,Yes,Yes,None,No
257,13,Mr,Graham,Rush,graham.rush123@btinternet.com,01256 761036,07778 384001,,CLANCY DOCWRA,MACHINE OPERATOR,66 HOP GARDEN ROAD,,HOOK,,RG27 9SU,United Kingdom,Sales Enquiry,Promac,,4-6 Months,6MCR,"Operator who could influence, tried a 6MCR at Plantworx",Yes,Yes,Yes,Yes,None,No
258,13,Mr,Daniel,Thomas,dan@bamct.co.uk,07907 078 962,07907 078 962,,BAM Construction Training Ltd,Intrapeneur,Unit 4 Warren Farm,Forest Road,WOKINGHAM,,RG40 5QY,United Kingdom,Sales Enquiry,Promac,,0-3 Months,,,Yes,Yes,Yes,Yes,None,No
259,13,Mr,Mark,Lillywhite,mwlillywhite@hotmail.co.uk,07760 376822,,,M w Lillywhite,Owner operator,2 Cavendish Gardens,Winnersh,WOKINGHAM,,RG41 5TG,United Kingdom,Sales Enquiry,Promac,,7-12 Months,,Interest in MWR,Yes,Yes,Yes,Yes,None,No
260,13,Mr,Mitchell,Frost,info@easy-diggers.co.uk,07876 227689,,,Mitchell frost / Easy-Diggers,Machine operator,26 Willwood Road,,BRACKNELL,,RG421SL,United Kingdom,Sales Enquiry,Promac,,0-3 Months,,Mwr,Yes,Yes,Yes,Yes,None,No
261,13,Mr,John,Williams,graham.rush123@btinternet.com,07554 429363,,,CLANCY DOCWRA,Top Grabber,Walnut Tree Farm,Benham Lane,SWALLOWFIELD,,RG7 1RY,United Kingdom,Sales Enquiry,Promac,,0-3 Months,,,Yes,Yes,Yes,Yes,None,No
262,13,Mr,Aidan,McCann,rob@mrowen.co.uk,01920 318085,,,Robert Owen Ltd,Plant Engineer,Unit 6 Charles House,Furlong Way,GREAT AMWELL,Herts,SG12 9TA,United Kingdom,Sales Enquiry,Promac,,0-3 Months,,,Yes,Yes,Yes,Yes,None,No
263,13,Mr,Danny,Currie,reassurance@hotmail.co.uk,07838 383473,07838 383473,,Reassurance,Ground worker,7 Rowan Gardens,Iverheath,IVERHEATH,Bucks,SL00SF,United Kingdom,Sales Enquiry,Promac,,0-3 Months,,,Yes,Yes,Yes,Yes,None,No
264,13,Mr,Alex,Kendall,its@industrial-training-services.co.uk,01268 560400,,,Industrial Training Services ltd,Instructor,Unit 1 Enterprise Way,,WICKFORD,,SS11 8DH,United Kingdom,Sales Enquiry,Promac,,Immediately,,,Yes,Yes,Yes,Yes,None,No
265,13,Mr,Colin,Carter,its@industrial-training-services.co.uk,01268 560400,,,INDUSTRIAL TRAINING SERVICES LTD,INSTRUCTOR,UNIT 1,ENTERPRISE WAY,WICKFORD,,SS11 8DH,United Kingdom,Sales Enquiry,Promac,,Immediately,,,Yes,Yes,Yes,Yes,None,No
266,13,Mr,Vince,Upstone,vinceupstone@gmail.com,07795 388916,07795 388916,,Vince upstone,Builder,Albans Barn,Romford Rd,TUNBRIDGE WELLS,Kent,TN24BB,United Kingdom,Sales Enquiry,Promac,,0-3 Months,,,Yes,Yes,Yes,Yes,None,No
267,13,Mr,Matt,Manwaring,mattskip24@hotmail.com,01892 723705,07795 388916,,Matt manwaring construction ltd,Builder,Albans Barn,Romford Rd,TUNBRIDGE WELLS,Kent,TN24BB,United Kingdom,Brochure Request,Promac,,7-12 Months,,Dumpers and Excavators,Yes,Yes,Yes,Yes,None,No
268,13,Mr,Steve,Bowden,steve.bowden@sgef.co.uk,,,,Societe Generale Equipment Finance Limited,Sales Director,Parkshot House,5 Kew Road,RICHMOND,,TW9 2PR,United Kingdom,Sales Enquiry,Promac,,0-3 Months,,,Yes,Yes,Yes,Yes,None,No
269,13,Mr,Tim,Blackmore,luke@tlplant.co.uk,07970 658056,07970 658056,,T & L Plant Ltd,Director,1 Hollybush Cottages,Hollybush Lane,DENHAM,,UB9 4HQ,United Kingdom,Sales Enquiry,Promac,,Immediately,,,Yes,Yes,Yes,Yes,None,No
270,13,Mr,Mark,Malone,ma.malone@live.co.uk,07976 430538,07977 430538,,M A MALONE BUILDING SERVICES,OWNER,3 HOLLAND GDNS,ENS,WATFORD,,WD25 9JN,United Kingdom,Sales Enquiry,Promac,,0-3 Months,,Dumpers 1 tonne,Yes,Yes,Yes,Yes,None,No
271,13,Mr,Matt,Hall,mathewhalls@icloud.com,,07768 717230,,M + B Hall Contractors Ltd,Managing Director,1 Green Drive Cottage,,LITTLE DARLINGTON,,OX18 4TE,United Kingdom,Sales Enquiry,Promac,,0-3 Months,,Customer is possibly in the market for 870 did not want dealer to call but may come back later,Yes,Yes,Yes,Yes,None,No
272,13,Mr,Lee,Wallis,lee@socomec.uk.com,07540 163859,,,SOCOMEC/SIMEX UK,,911 Green Lanes,,LONDON,,N21 2QP,United Kingdom,Sales Enquiry,Promac,,12+ Months,,General,Yes,Yes,Yes,Yes,None,No
273,13,Mr,Karl,Dorrington,mpf54dorrington@gmail.com,01634 822519,,,Royal Engineers,Military Plant Foreman,Brompton Barracks,,CHATHAM,,ME4 4UG,United Kingdom,Sales Enquiry,Promac,,0-3 Months,,,Yes,Yes,Yes,Yes,None,No
274,13,Mr,Harvey,Oliffe,harvey_oliffe@hotmail.co.uk,07805 741507,07805 741507,,British Army,Construction Materials Technician,Brompton Barracks,Kirby Troop,CHATHAM,Kent,ME44UG,United Kingdom,Sales Enquiry,Promac,,0-3 Months,,,Yes,Yes,Yes,Yes,None,No
275,13,Mr,Justin,James,,,07831 572740,,Justin James,,44 St Marys Road,,BANBURY,,OX17 3HB,United Kingdom,Sales Enquiry,Promac,,0-3 Months,,,Yes,Yes,Yes,Yes,None,No
276,13,Mr,Harry,Truman,,,,,H T Plant Hire,,6B parkway,Porters Wood,St Albans,Hertfordshire,AL3 6PA,United Kingdom,Sales Enquiry,Promac,,0-3 Months,,,Yes,Yes,Yes,Yes,None,No
277,13,Mr,Michel,Hubbard,,01255 830365,07769 907599,,MV&SE Hubbard,Self Employed,Thorpe Road,Weeley,CLACTON-ON-SEA,,CO16 9JL,United Kingdom,Sales Enquiry,Promac,,0-3 Months,,,Yes,Yes,Yes,Yes,None,No
278,13,Mr,Simon,Gardner,wickhamdiggers@gmail.com,01969 540999,07976 125679,,Wickham diggers,Director,Great South Street Farm,Main Road,WESTERHAM,,TN166HP,United Kingdom,Sales Enquiry,Promac,,Immediately,,,Yes,Yes,Yes,Yes,None,No
279,13,Mr,Steve,Armstrong,bricklane@sky.com,07796 140835,07796 140835,,Berkshire Stone,Proprietor,51 Melrose Gardens,,ARBOR FIELD,Berks,RG28PY,United Kingdom,Sales Enquiry,Promac,,0-3 Months,,,Yes,Yes,Yes,Yes,None,No
280,14,Mr,Blake,Carter,iangll@yahoo.co.uk,07977 985768,07977 985768,,Edwalt contractors ltd,Operator,1 Tirwaun,Kidwelly,BURRY PORT,,SA16 0AR,United Kingdom,Sales Enquiry,Riverlea,,0-3 Months,6MCR,Colleague Gary Walters did 6MCR demo,Yes,Yes,Yes,Yes,None,No
281,14,Mr,Roger,Whistance,jenrhamilton@gmail.com,01558 685684,07880 570605,,Roger Whistance,Agricultural Contractor,Cartref,Abergorlech,NR.CARMARTHEN,Dyfed,SA32 7SN,United Kingdom,Sales Enquiry,Riverlea,,0-3 Months,,Excavators,Yes,Yes,Yes,Yes,None,No
282,14,Mr,Melfyn,Evans,gwynethlewis@aol.com,07875 601928,07817 027341,,Melfyn Evans,Owner,Awel Y Mynydd,Llanllwni,PENCADER,,SA39 9EA,United Kingdom,Sales Enquiry,Riverlea,,Immediately,,,Yes,Yes,Yes,Yes,None,No
283,14,Mr,Andrew,Lewis,gwynethlewis@aol.com,07875 601928,07876 601928,,Andrew Lewis,Partner,Awel Y Mynydd,Llanllwni,PENCADER,,SA39 9EA,United Kingdom,Sales Enquiry,Riverlea,,Immediately,,,Yes,Yes,Yes,Yes,None,No
284,14,Mr,Aeron,Maskell,amask@hotmail.co.uk,01545 580425,,,MASKELL BUILDERS,BOSS,MAES Y COED,,LLANARTH,,SA47 0RG,United Kingdom,Sales Enquiry,Riverlea,,Immediately,,,Yes,Yes,Yes,Yes,None,No
285,14,Mr,Richard,Evans,richard@kjhire.co.uk,01792 790953,,,KJ HIRE AND SALES LIMITED,Service Manager,Kemys Way,Enterprise Park,SWANSEA,,SA6 8QF,United Kingdom,Sales Enquiry,Riverlea,,0-3 Months,,,Yes,Yes,Yes,Yes,None,No
286,14,Mr,Richard,Evans,richard@kjhire.co.uk,01792 790953,,,KJ HIRE AND SALES LIMITED,Service Manager,Kemys Way,Enterprise Park,SWANSEA,,SA6 8QF,United Kingdom,Sales Enquiry,Riverlea,,0-3 Months,,,Yes,Yes,Yes,Yes,None,No
287,14,Mr,Tim,Swain,jwilliams.kjhire@gmail.com,01792 790953,07710 362800,,KJ HIRE AND SALES LIMITED,Director,Kemys Way,Enterprise Park,SWANSEA,,SA6 8QF,United Kingdom,Sales Enquiry,Riverlea,,0-3 Months,,,Yes,Yes,Yes,Yes,None,No
288,14,Mr,Mark,Phillips,mdphillips@talk21.com,07778 111811,,,Phillips exvavators,Eng,5 Maes Ffynnon,Roch,HAVERFORDWEST,,SA62 6BQ,United Kingdom,Sales Enquiry,Riverlea,,Immediately,,,Yes,Yes,Yes,Yes,None,No
289,14,Mr,Wayne,Evans,helen.evans100@hotmail.co.uk,07772 607948,,,W Evans Plant Hire,Owner,17 GORS ROAD,PENLLERGAER,SWANSEA,,SA4 9BA,United Kingdom,Sales Enquiry,Riverlea,,0-3 Months,,,Yes,Yes,Yes,Yes,None,No
290,14,Mr,Steve,Allen,mdphillips@talk21.com,07778 111811,,,Allen plant,Owner,5 Maes Ffynnon,Roch,HAVERFORDWEST,,SA62 6BQ,United Kingdom,Sales Enquiry,Riverlea,,Immediately,,,Yes,Yes,Yes,Yes,None,No
291,15,Mr,Mahdi,Saki,mehdisaki10@yahoo.com,07450 988541,07450 988541,,Saki Enterprise Ltd.,Director,0/2,47 Cartvale Road,GLASGOW,,G42 9RP,United Kingdom,Sales Enquiry,Scotia,,Immediately,,Brochure & left business card,Yes,Yes,Yes,Yes,None,No
292,15,Mr,Eddie,Muir,eddiemuir165@gmail.com,07796 112631,07796 112631,,Drumclog plant hire,Operator,13 Priory Road,,LESMAHAGOW,,ML110AA,United Kingdom,Other,Scotia,Operator,0-3 Months,,May be able to influence company purchase,Yes,Yes,Yes,Yes,None,No
293,15,Mr,Eddie,Muir,eddiemuir57@gmail.com,07743 304273,07744 304273,,R J McLeod,Operator,17 Sanderling,,LESMAHAGOW,,ML110GX,United Kingdom,Other,Scotia,Operator,0-3 Months,,May be able to influence on mcr,Yes,Yes,Yes,Yes,None,No
294,15,Mr,William,Forrest,william@mousevalley.com,07983 378788,07983 378788,,Mouse Valley Equipment Ltd,Managing Director,Kame View,Eastend,CLEGHORN,Lanarkshire,ML118NR,United Kingdom,Sales Enquiry,Scotia,,Immediately,,Dumpers,Yes,Yes,Yes,Yes,None,No
295,15,Mr,Ronnie,Maccoll,maccollandson@btconnect.com,01631 730201,07718 912591,,Maccoll (Appin) Ltd,Director,Ar Dachaidh,,APPIN,,PA38 4BL,United Kingdom,Sales Enquiry,Scotia,,Immediately,,,Yes,Yes,Yes,Yes,None,No
296,16,Miss,Alison,Johnston,alisonjohnston431@btinternet.com,07592 318004,07593 318004,,A Mckee & co ltd,Administrative Officer,9 Ballylagan Lane,Aghadowey,COLERAINE,,BT51 4DD,United Kingdom,Sales Enquiry,Sleator,,Immediately,,,Yes,Yes,Yes,Yes,None,No
297,16,Mr,David,Wilson,heather@nc-engineering.com,,,,NC Engineering,Senior Engineer,2 Killyrudden Road,Hamiltonsbawn,ARMAGH,,BT61 9SF,United Kingdom,Sales Enquiry,Sleator,,0-3 Months,,,Yes,Yes,Yes,Yes,None,No
298,16,Mr,Roy,Hawkes,royhawkes@hotmail.co.uk,028 8224 5427,07775 697147,,hawkes machine tools,Owner,72 Dunnamona Road,Co Tyrone,OMAGH,,BT78 1ST,United Kingdom,Sales Enquiry,Sleator,,0-3 Months,,,Yes,Yes,Yes,Yes,None,No
299,16,Mr,Stephen,Lowry,stephen@lowryconstruction.co.uk,028 8167 0263,07786 564151,,Lowry Construction Ltd,Director,30 Carncorn Rd,,CASTLEDERG,,BT81 7RH,United Kingdom,Sales Enquiry,Sleator,,0-3 Months,6MCR,"Dumpers, MCR demo at Plantworx",Yes,Yes,Yes,Yes,None,No
300,16,Mr,Micahel,Conway,,,07778 468618,,Euro Auctions,,72-74 Omagh Road,Dromore,OMAGH,,BT78 3AJ,United Kingdom,Sales Enquiry,Sleator,,4-6 Months,,Channel to market looking at new and used opportunities,Yes,Yes,Yes,Yes,None,No
301,17,Mr,Russell,Smith,russ.georgie@sky.com,07971 569710,07972 569710,,RS Landscapes,Groundworker,32 Dowding Drive,,CALNE,,SN11 8QL,United Kingdom,Sales Enquiry,TH White,,0-3 Months,,General,Yes,Yes,Yes,Yes,None,No
302,17,Mr,Iain,Penney,patriciaosullivan@sky.com,01249 325520,07748 401862,,Iain Penney plant hire ltd,Director operator,3,Wessington Court,CALNE,,SN110SS,United Kingdom,Sales Enquiry,TH White,,0-3 Months,,General,Yes,Yes,Yes,Yes,None,No
303,17,Mr,Nick,Ody,nickody@aol.com,07502 190151,,,John O'Flynn Developments Ltd,Plant safety manager,Elken,York Lane Brinkworth,WILTS,,SN155AN,United Kingdom,Sales Enquiry,TH White,,0-3 Months,,,Yes,Yes,Yes,Yes,None,No
304,17,Mr,Stuart,Morgan,smorganswindon@live.co.uk,01793 886444,07830 173645,,Tiger Plant Ltd,Director,Unit 4 Clearwater Business Pk,Frankland Road,SWINDON,,SN5 8YZ,United Kingdom,Sales Enquiry,TH White,,0-3 Months,,,Yes,Yes,Yes,Yes,None,No
305,17,Mr,Stuart,Morgan,stuart.@tigerplantco.uk,01793 886444,07830 173645,,Tiger Plant Ltd,Director,Unit 4 Clearwater Business Pk,Frankland Road,SWINDON,,SN5 8YZ,United Kingdom,Sales Enquiry,TH White,,0-3 Months,,6 MCR brochure and price please Contact by email only Ben,No,No,Yes,No,None,No
306,17,Mr,Ben,Bodman,edwbodman@btconnect.com,07970 282355,07970 282355,,E D AND W BODMAN,Foreman,E D & W Bodman Ltd,Little Bowerhill Farm 457 Bow,MELKSHAM,,SN12 6RA,United Kingdom,Sales Enquiry,TH White,,0-3 Months,,,Yes,Yes,Yes,Yes,None,No
307,17,Mr,Rob,Hacker,rob.hacker@conlon.co.uk,07814 977399,07814 977399,,Conlon,Senior Engineer,Manor Farm,Cricklade,SWINDON,,SN66JR,United Kingdom,Sales Enquiry,TH White,,0-3 Months,,D and r,Yes,Yes,Yes,Yes,None,No
308,17,Mr,Richard,Tayler,rje360@btinternet.com,,07834 46725,,Rjt Groundwork Ltd,Owner,Nursteed Close,,DEVIZES,,SN10 3EU,United Kingdom,Sales Enquiry,TH White,,Immediately,,,Yes,Yes,Yes,Yes,None,No
309,18,Mr,Callum,McKie,,07837 919283,,,McKie Group,,,,,,,United Kingdom,Sales Enquiry,Unknown,,Immediately,,,Yes,Yes,Yes,Yes,None,No
310,19,Mr,Darren,Day,bayleafents@aol.com,78318 81066,,,Bay Leaf Enterprises,Owner-operator at Bay Leaf Enterprises,23 Merlin Drive,,ELY,,CB6 3EE,United Kingdom,Sales Enquiry,Willowbrook,,0-3 Months,6MCR,Had a 6MCR demo at Plantworx,Yes,Yes,Yes,Yes,None,No
311,19,Mr,Brendan,Mosley,brendan.mosley@mosleymoling.co.uk,01438 879202,,,Mosley Services,Plant Operator,E Space Business Centre,26 St Thomas Place,ELY,,CB7 4EX,United Kingdom,Sales Enquiry,Willowbrook,,0-3 Months,,Bhl,Yes,Yes,Yes,Yes,None,No
312,19,Mr,Ben,Warren,benwarrenbuild@aol.com,01638 724846,07770 885673,,Ben warren building ltd,Building contractor,230 Carter Street,Fordham,ELY,,CB7 5JU,United Kingdom,Sales Enquiry,Willowbrook,,7-12 Months,,,Yes,Yes,Yes,Yes,None,No
313,19,Mr,Peter,Walsh,pw171@hotmail.com,07545 140466,07546 140466,,mobile plant solutions,Mobile Plant Engineer,12 Tower Road,Hartshorne,SWADLINCOTE,,DE117EU,United Kingdom,Sales Enquiry,Willowbrook,,0-3 Months,,,Yes,Yes,Yes,Yes,None,No
314,19,Mr,Jason,Brookes,jason_brookes@heathrow.com,07720 312934,07720 312934,,Heathrow Airport Limited (HAL),Project Engineer,181 Ashby Road,Moira,SWADLINCOTE,,DE12 6DW,United Kingdom,Sales Enquiry,Willowbrook,,0-3 Months,,,Yes,Yes,Yes,Yes,None,No
315,19,Dr,R,Thorne,rcmdt@live.com,,,,R-R,Engineer,6 Askerfield Ave,,DERBY,,DE22 2ST,United Kingdom,Brochure Request,Willowbrook,,12+ Months,,Not ready to purchase. Has an old Massey and is more of an enthusiast,Yes,Yes,Yes,Yes,None,No
316,19,Mr,Matt,Stone,mattngracedigs@gmail.com,01335 370978,07866 253212,,MATT STONE,OWNER,SCHOOL HOUSE,YEW TREE LANE,ASHBOURNE,,DE6 1PG,United Kingdom,Sales Enquiry,Willowbrook,,0-3 Months,,Mcr & dumper,Yes,Yes,Yes,Yes,None,No
317,19,Miss,Amelia,Beaver,troy.samuel@environment-agency.gov.uk,01332 873749,,,Environment Agency,Team Member,Nooning Lane,Draycott,DERBY,,DE72 3NZ,United Kingdom,Sales Enquiry,Willowbrook,,0-3 Months,,,Yes,Yes,Yes,Yes,None,No
318,19,Mr,Kaine,Richards,dean@crcivilengineering.co.uk,01509 263052,,,CR CIVIL ENGINEERING LTD,Trainee,QUORN HOUSE,CHARNWOOD BUSINESS PARK,LOUGHBOROUGH,,LE11 1LE,United Kingdom,Sales Enquiry,Willowbrook,,0-3 Months,,Dumpers,Yes,Yes,Yes,Yes,None,No
319,19,Mr,Max,Pickerill,max@specialised-groundcare.co.uk,01509 853867,07976 272306,,Specialised Groundcare Ltd,Director,57 Woodroffe Way,East Leake,LOUGHBOROUGH,,LE12 6AL,United Kingdom,Sales Enquiry,Willowbrook,,0-3 Months,6MCR,Tried a 6MCR at plantworx,Yes,Yes,Yes,Yes,None,No
320,19,Mr,Mike,Dean,rog.mills@hotmail.co.uk,07801 090777,,,R & R Mills Contractors ltd,Foreman,Woodside Farm,,OAKHAM,,LE15 8QD,United Kingdom,Sales Enquiry,Willowbrook,,0-3 Months,,,Yes,Yes,Yes,Yes,None,No
321,19,Mr,Roger,Mills,rog.mills@hotmail.co.uk,07801 090777,,,R & R Mills Contractors ltd,Director,Woodside Farm,,OAKHAM,,LE15 8QD,United Kingdom,Sales Enquiry,Willowbrook,,12+ Months,,MCR 8 tonne,Yes,Yes,Yes,Yes,None,No
322,19,Mr,Philip,Cooper,b_r_m@hotmail.co.uk,01858 289506,07899 676114,,Building Repairs Maintenance Ltd,Managing Director,6 The Lealand East Farndon,,MARKET HARBOROUGH,,LE16 7SQ,United Kingdom,Sales Enquiry,Willowbrook,,0-3 Months,,,Yes,Yes,Yes,Yes,None,No
323,19,Mr,James,Burbidge,jim_burbidge@hotmail.com,01858 463382,,,J O BURBIDGE CONTRACTORS,OWNER/OPERATOR,137 MAIN STREET,LUBENHAM,MARKET HARBOROUGH,,LE16 9TG,United Kingdom,Sales Enquiry,Willowbrook,,0-3 Months,,,Yes,Yes,Yes,Yes,None,No
324,19,Mr,Steve,Morrow,stevemph@icloud.com,0116 286 5868,07950 903303,,M P H Construction (Lutterworth) Ltd,Director,41 Cosby Rd,,LITTLETHORPE,Leics,LE19 2HG,United Kingdom,Sales Enquiry,Willowbrook,,0-3 Months,,Mcr dumpers and a bhl,Yes,Yes,Yes,Yes,None,No
325,19,Mr,Russell,Morrow,russellmph@icloud.com,0116 286 5868,07950 902884,,MPH Construction,Director,41 Cosby Road Littlethorpe,,LEICESTER,,LE19 2HG,United Kingdom,Sales Enquiry,Willowbrook,,Immediately,,Dumpers,Yes,Yes,Yes,Yes,None,No
326,19,Mr,Rick,Hall,rick@kerrick-drying-lockers.com,07889 532432,,,Kerrick Drying Lockers,Director,35 Oxford Road,,LEICESTER,,LE2 1TN,United Kingdom,Sales Enquiry,Willowbrook,,0-3 Months,,,Yes,Yes,Yes,Yes,None,No
327,19,Mr,Spud,Bentley,spud.paul.bentley@tarmac.com,07799 742414,,,Tarmac,Senoir Crusher Operator,17 Peartree Close,Anstey,LEICESTER,,LE7 7TD,United Kingdom,Sales Enquiry,Willowbrook,,0-3 Months,,,Yes,Yes,Yes,Yes,None,No
328,19,Mr,Matthew,Johnson,mdjcb@hotmail.co.uk,01455 274219,07773 416561,,MD&RJ JOHNSON,Owner Operator,The Barn,HobbsHayesFarm,SAPCOTE,Leics,LE9 4LH,United Kingdom,Sales Enquiry,Willowbrook,,0-3 Months,,Mwr,Yes,Yes,Yes,Yes,None,No
329,19,Mr,Matthew,Johnson,mdjcb@hotmail.co.uk,01455 274219,07773 416561,,MD&RJ JOHNSON,Owner Operator,The Barn,HobbsHayesFarm,SAPCOTE,Leics,LE9 4LH,United Kingdom,Sales Enquiry,Willowbrook,,0-3 Months,,Mwr,Yes,Yes,Yes,Yes,None,No
330,19,Mr,Paul,Wilkin Son,paulwilkinson837@btinternet.com,01673 860742,07900 933783,,mnj haulage,Hgv Driver,12 Prebend Lane,Welton,LINCOLN,,LN2 3JU,United Kingdom,Sales Enquiry,Willowbrook,,0-3 Months,,Interest in purchasing scales models,Yes,Yes,Yes,Yes,None,No
331,19,Mr,Daniel,Ingall,naomi@daniel-charles.co.uk,01673 860444,,,Daniel Charles Construction Ltd,Director,Honeywood Barn,Honeyholes Lane,LINCOLN,,LN2 3SU,United Kingdom,Sales Enquiry,Willowbrook,,0-3 Months,,Dumper and MCR Inquiry. Willowbrook,Yes,Yes,Yes,Yes,None,No
332,19,Mr,Lee,Pickwell,pickwell.paving@googlemail.com,01526 342202,,,Pickwell Paving,Partner,Mayfield,Old Fen Lane,SCRUB HILL,Lincs,LN4 4XD,United Kingdom,Sales Enquiry,Willowbrook,,Immediately,,,Yes,Yes,Yes,Yes,None,No
333,19,Mr,Chris,Nemeiksas,chris.nem@btinternet.com,07900 697899,,,Chris Nem groundworks,Director,Mayfield,Old Fen Lane,SCRUB HILL,Lincs,LN4 4XD,United Kingdom,Sales Enquiry,Willowbrook,,Immediately,,,Yes,Yes,Yes,Yes,None,No
334,19,Mr,Nick,Dunworth,pickwell.paving@googlemail.com,01526 342202,,,Pickwell Paving,Contracts Manager,Mayfield,Old Fen Lane,SCRUB HILL,Lincs,LN4 4XD,United Kingdom,Sales Enquiry,Willowbrook,,Immediately,,,Yes,Yes,Yes,Yes,None,No
335,19,Mr,Liam,Webb,info@mapletreecare.co.uk,0115 917 9414,07860 725113,,Maple tree care midlands ltd,Site clearance contractors,37 Lancaster Ave,Sandiacre,NG19 5GW,Nottingham,NG10 5GW,United Kingdom,Sales Enquiry,Willowbrook,,0-3 Months,,,Yes,Yes,Yes,Yes,None,No
336,19,Mr,Graeme,Dunn,graeme.dunn@flexfab.com,01623 688100,07766 227954,,Flexfab Europe Ltd,European Sales Manager,Unit D,Willow Drive,ANNESLEY,Nottingham,NG15 0DP,United Kingdom,Sales Enquiry,Willowbrook,,Immediately,,,Yes,Yes,Yes,Yes,None,No
337,19,Mr,Dean,Spires,deane.spiers@mpawards.co.uk,0115 9726121,,,MPQC,Assistant Industry Schemes Manager,MP House 4a Meadowbank Way,,"EASTWOOD, NOTTINGHAM",,NG16 3SB,United Kingdom,Sales Enquiry,Willowbrook,,0-3 Months,,,Yes,Yes,Yes,Yes,None,No
338,19,Mr,Neil,Goodarce,lesliechanner@btinternet.com,01623 755457,,,Self Employed.,Driver.,6 PARK AVENUE,KIRKBY-IN-ASHFIELD,NOTTINGHAM,Notts,NG17 9BQ,United Kingdom,Sales Enquiry,Willowbrook,,Immediately,,,Yes,Yes,Yes,Yes,None,No
339,19,Mr,Murray,Duffie,collettplanthire@hotmail.com,07535 509109,,,Collett Plant Hire Limited,Engineer,158 Devon Road,,NEWARK,,NG244JW,United Kingdom,Sales Enquiry,Willowbrook,,0-3 Months,,,Yes,Yes,Yes,Yes,None,No
340,19,Mr,Alan,Bontoft,alanbontoft@yahoo.co.uk,01475 55007,07825 092522,,A J Bontoft Building Services,Owner,3,Coronation Rd,GRANTHAM,,NG334LZ,United Kingdom,Sales Enquiry,Willowbrook,,0-3 Months,,,Yes,Yes,Yes,Yes,None,No
341,19,Mr,Mark,Lamming,mark.lamming493@btinternet.com,01476 550803,07768 530753,,Forge construction EM Ltd,Owner,7 Market Place,Corby Glen,GRANTHAM,,NG334NH,United Kingdom,Sales Enquiry,Willowbrook,,4-6 Months,,"Bhl, runs a 7 year old 3CX at the minute. Interested to swap",Yes,Yes,Yes,Yes,None,No
342,19,Mr,Ian,Sweeting,ian.sweeting@ntlworld.com,0115 8409255,07749 235577,,MCAD engineering LTD,Design Engineer,35 Brooklands Drive,Gedling,NOTTINGHAM,Notts,NG43GU,United Kingdom,Sales Enquiry,Willowbrook,,0-3 Months,,,Yes,Yes,Yes,Yes,None,No
343,19,Mr,Martyn,Wright,elaine@ewright91.wanadoo.co.uk,07966 244631,07966 244631,,wrights,Plant Owner,117 Huntingdon Road,,THRAPSTON,Northants,NN144NG,United Kingdom,Sales Enquiry,Willowbrook,,0-3 Months,,Passing interest only,Yes,Yes,Yes,Yes,None,No
344,19,Mr,Andy,Rogers,andy@152rogers.fsnet.co.uk,07530 429890,,,BDW TRADING LTD,SITE MANAGER,152 BALFOUR ROAD,,NORTHAMPTON,,NN26JP,United Kingdom,Sales Enquiry,Willowbrook,,0-3 Months,,,Yes,Yes,Yes,Yes,None,No
345,19,Mr,Mark,Harris,farm@qiq.co.uk,07712 602322,,,P t Harris & son,Farmer,Home Farm,,COTTESBROOKE,Northampton,NN6 8PH,United Kingdom,Sales Enquiry,Willowbrook,,0-3 Months,,,Yes,Yes,Yes,Yes,None,No
346,19,Mr,Ian,Anderson,i.stuart.anderson@gmail.com,07703 287439,07703 287439,,L Lynch Plant Hire & Haulage,Plant Operator,81 Bluebell Avenue,Dogsthorpe,PETERBOROUGH,,PE1 3XH,United Kingdom,Sales Enquiry,Willowbrook,,12+ Months,6MCR,6mcr demo at Plantworx,Yes,Yes,Yes,Yes,None,No
347,19,Mr,Thomas,Baker,mbacon.planthire@hotmail.co.uk,01406 363680,,,M Bacon Plant Hire Ltd,Office Administrator,Ivy House,Gedney Broadgate,SPALDING,,PE12 0DE,United Kingdom,Sales Enquiry,Willowbrook,,0-3 Months,,,Yes,Yes,Yes,Yes,None,No
348,19,Mr,David,Underwood,dewdenemanagement@yahoo.co.uk,01354 741035,07771 918249,,Dewdene management ltd,Md,Eastmoor Farm,300 Eastmoor Lane,MARCH,,PE15 0WE,United Kingdom,Sales Enquiry,Willowbrook,,Immediately,,,Yes,Yes,Yes,Yes,None,No
349,19,Mr,Lee,Fisher,fishercontracting@hotmail.co.uk,07517 364696,07517 364696,,fisher contracting,Director,4 Haslehurst,Close,MARCH,,PE15 9BB,United Kingdom,Sales Enquiry,Willowbrook,,0-3 Months,,,Yes,Yes,Yes,Yes,None,No
350,19,Mr,Jon,Kirke,jonkirke@live.co.uk,01754 873680,07775 865259,,Jon kirke plumbing and heating,Gas engineer,Vina Sol House,Wrights Lane,BOSTON,,PE22 8RW,United Kingdom,Sales Enquiry,Willowbrook,,0-3 Months,,,Yes,Yes,Yes,Yes,None,No
351,19,Mr,Sean,Donovan,seandonovan@benburgess.co.uk,01480 890990,07825 365399,,Ben Burgess,Sales Manager,Brook Farm,Ellington,HUNTINGDON,,PE28 0AE,United Kingdom,Sales Enquiry,Willowbrook,,0-3 Months,,,Yes,Yes,Yes,Yes,None,No
352,19,Mr,Tom,Calton,tom@rtcplant.com,01733 810695,07770 882264,,RTC Plant Services Ltd,Managing Director,Milton Business Park,Werrington Bridge Road,PETERBOROUGH,,PE6 7PP,United Kingdom,Sales Enquiry,Willowbrook,,0-3 Months,,Dumpers and rollers,Yes,Yes,Yes,Yes,None,No
353,19,Mr,Joe,Furness,alanfurness@btinternet.com,01433 621698,07879 824698,,FURNESS BROS LTD,DIRECTOR,ECCLES HOUSE,ECCLES LANE,HOPE VALLEY,,S33 6RW,United Kingdom,Sales Enquiry,Willowbrook,,0-3 Months,,,Yes,Yes,Yes,Yes,None,No
354,19,Mr,Keith,Kelly,keith.kelly@txmplant.co.uk,07557 744729,07558 744729,,TXM Plant,Support &Training,19 Netherfield Rd,,CHESTERFIELD,,S40 3LS,United Kingdom,Sales Enquiry,Willowbrook,,0-3 Months,,,Yes,Yes,Yes,Yes,None,No
355,19,Mr,Kyle,Hailwood,kylehailwood@hotmail.com,01246 865143,,,NT Killingly,Plant Operator,Old Manor Park,Temple Normanton,CHESTERFEILD,Derbyshire,S42 5EN,United Kingdom,Sales Enquiry,Willowbrook,,0-3 Months,,,Yes,Yes,Yes,Yes,None,No
356,19,Mr,Eddy,Oldknow,vickyoldknow@gmail.com,07707 120676,07707 120676,,OCL,Builder,Stanfree Farm,Low Road,CLOWNE,,S43 4LQ,United Kingdom,Sales Enquiry,Willowbrook,,Immediately,,Bhl,Yes,Yes,Yes,Yes,None,No
357,19,Mr,Richard,Blnd,richard.bland@tatasteel.com,01709 826599,07753 866146,,Tata Steel,Team Leader Mobile Plant,PO Box 50,Aldwarke Lane,ROTHERHAM,,S60 1DW,United Kingdom,Sales Enquiry,Willowbrook,,0-3 Months,,,Yes,Yes,Yes,Yes,None,No
358,19,Mr,Mark,Kay,k-plant@btconnect.com,07970 046106,,,k-plant,Owner,Lapwater Farm,Midhurst Rd,SHEFFIELD,S Yorks,S61EZ,United Kingdom,Sales Enquiry,Willowbrook,,Immediately,,,Yes,Yes,Yes,Yes,None,No
359,19,Mr,Paddy,Bermingham,paddy68@talktalk.net,01709 379918,07974 410468,,Paddy Bermingham plant hire ltd,Driver/owner,88 Dovedale Road,Herringthorpe,ROTHERHAM,,S65 3AR,United Kingdom,Sales Enquiry,Willowbrook,,0-3 Months,,"Interested in in 11MWR, and was comparing against JCB",Yes,Yes,Yes,Yes,None,No
360,19,Mr,Bernard,Labram,daniellabram@aol.com,0116 2478219,07866 362818,,DL Contracting Ltd,,9A Leicester Road,Leicester,LEICESTER,Leicestershire,LE8 4GR,United Kingdom,Sales Enquiry,Willowbrook,,0-3 Months,,Diggers,Yes,Yes,Yes,Yes,None,No
361,19,MR,Andrew,Tebbutt,atebbuttbuilders@hotmail.co.uk,01536 713688,07710 439467,,Tebbutt Builders,Owner,The Haybarn,Glendon Hill Farm,KETTERING,,NN14 1QE,United Kingdom,Sales Enquiry,Willowbrook,,0-3 Months,,Keep out of the rain,Yes,Yes,Yes,Yes,None,No
362,19,Mr,Francis,Albery,francis.albery@cvgrp.com,00 1604 641553,07741 277022,,CVG KAB Seating Ltd,Test Engineer,KAB Seating Ltd,Stone Circle Road,NORTHAMPTON,,NN3 8RS,United Kingdom,Sales Enquiry,Willowbrook,,0-3 Months,,,Yes,Yes,Yes,Yes,None,No
363,19,Mr,Craig,Bell,craig@jccivils.co.uk,07872 379929,,,JC CIVILS LTD,Civil engineer,4 Vespasian Way,,LINCOLN,,LN6 9ZB,United Kingdom,Sales Enquiry,Willowbrook,,0-3 Months,,,Yes,Yes,Yes,Yes,None,No
364,19,Mr,Jordan,Simpson,chris.simpson@rphsurfacing.co.uk,01623 235482,,,Robinsons Paver Hire / RPH Surfacing,Student,The Old School Offices,John Davies Workshops,HUTHWAITE,Notts,NG17 2LQ,United Kingdom,Sales Enquiry,Willowbrook,,0-3 Months,,Dumper,Yes,Yes,Yes,Yes,None,No
365,19,Mr,Peter,Stone,stoneuk50@hotmail.com,07929 516337,,,Dave Stone Excavator Services,Boss,6 MARTINS LANE,HANBURY,BURTON-ON-TRENT,,DE13 8TE,United Kingdom,Sales Enquiry,Willowbrook,,0-3 Months,,,Yes,Yes,Yes,Yes,None,No
366,19,Mr,John,Vickers,john@bridge67cookeryschool.co.uk,0116 279 1014,07702 807323,,JW & JE Vickers,Farmer,Binleys Bridge Farm,,LEICESTER,,LE8 0QD,United Kingdom,Sales Enquiry,Willowbrook,,0-3 Months,,,Yes,Yes,Yes,Yes,None,No
367,19,Mr,Darren,Ross,leealbans@upperwitham-idb.gov.uk,01522 697123,01522 697123,,upper witham internal drainage board,Operator,J1 The Point Weaver Road Linco,,LINCOLN,Choose .,LN63QN,United Kingdom,Sales Enquiry,Willowbrook,,Immediately,,,Yes,Yes,Yes,Yes,None,No
368,19,Mr,Lee,Albans,leealbans@upperwitham-idb.gov.uk,01522 697123,01522 697123,,upper witham internal drainage board,Supervisor,J1 The Point Weaver Road Linco,,LINCOLN,Choose .,LN63QN,United Kingdom,Sales Enquiry,Willowbrook,,Immediately,,Mcr,Yes,Yes,Yes,Yes,None,No
369,19,Mr,Jack,Hailwood,hailwoodjack@yahoo.com,01246 234940,07534 500747,,JW Thompson Ltd,Manager,Mile Hill,Hashland,CHESTERFIELD,,S41 0JN,United Kingdom,Sales Enquiry,Willowbrook,,0-3 Months,,,Yes,Yes,Yes,Yes,None,No
370,19,Mr,John,Furlong,jfurlong@jjmac.co.uk,01778 423904,,,JJMac Ltd,Director,2 Tilia House,Tilia Way,BOURNE,,PE10 0QR,United Kingdom,Sales Enquiry,Willowbrook,,0-3 Months,,TA9 has bought 3 JCB's recently and interested in a couple more,Yes,Yes,Yes,Yes,None,No
371,19,Mr,Adam,Wilkins,adam.wilkins@icould.com,07900 583430,,,L A Service,Owner,4a Coronation Road,Brimington,CHESTERFIELD,,S42 7PT,United Kingdom,Sales Enquiry,Willowbrook,,Immediately,,,Yes,Yes,Yes,Yes,None,No
372,19,Mr,Kain,Ward,kward1715@gmail.com,,07724 409594,,A Harrison Construction,Labour,10 Martins Lane,Hanbury,BURTON-ON-TRENT,,DE13 8TE,United Kingdom,Sales Enquiry,Willowbrook,,0-3 Months,,,Yes,Yes,Yes,Yes,None,No
373,19,Mr,Paul,Briddon,paul.briddon@cleehill.co.uk,01246 262714,,,Clee Hill Plant LTD,Paint Technician,Mansfield Road,,CHESTERFIELD,,S410JW,United Kingdom,Sales Enquiry,Willowbrook,,Immediately,,,Yes,Yes,Yes,Yes,None,No
374,19,Mr,Matt,Bushell,iandjbushell1@btconnect.com,07979 911655,,,I and J Bushell,Contractor,1 Little Woodcote Estate,Woodmansterne Road,CARSHALTON,,SM5 4AL,United Kingdom,Sales Enquiry,Willowbrook,,0-3 Months,,Backhoe enquiry got a 3cx contractor model not happy . Thinks 870 looks a bit basic 890 more appealing . Didnt want a demo but should be followed up by the dealer BA,Yes,Yes,Yes,Yes,None,No
375,19,Mr,Matthew,Copley,matt0109@live.co.uk,07716 697624,07716 67624,,Copley training service,Director,36 Lacey Close,,LUTTERWORTH,,LE174GX,United Kingdom,Sales Enquiry,Willowbrook,,Immediately,,,Yes,Yes,Yes,Yes,None,No
376,19,Mr,Chris,Sykes,chris_sykes59@tiscali.co.uk,01623 810323,07974 777664,,C K SYKES & SON,PARTNER,NORTH LODGE FARM,MEDEN LANE,MANSFIELD,,NG19 8RH,United Kingdom,Sales Enquiry,Willowbrook,,0-3 Months,,,Yes,Yes,Yes,Yes,None,No
377,19,Mr,Max,Duggan,max-duggan1@hotmail.co.uk,07523 770614,,,Copley Training Service,Operative,16 de Verdon Road,,LUTTERWORTH,,LE17 4QP,United Kingdom,Sales Enquiry,Willowbrook,,Immediately,,,Yes,Yes,Yes,Yes,None,No
378,19,Mr,Linden,Shepperson,,,,,KS Contractors,Builder,Breeze Field Damgate Road,Holbeach,SPALDING,,PE12 8PB,United Kingdom,Sales Enquiry,Willowbrook,,Immediately,,,Yes,Yes,Yes,Yes,None,No
379,19,Mr,James,Lloyd-Willis,jameslloyd1504@live.co.uk,07955 620997,07955 620997,,JLW PLANT and EQUIPMENT SALES,PLANT SPECIALIST,NO 2 TAFT LEYS ROAD,EAST LEAKE,LOUGHBOROUGH,,LE12 6JR,United Kingdom,Sales Enquiry,Willowbrook,,Immediately,,Own terex dumper & enquiring about the TA1eh,Yes,Yes,Yes,Yes,None,No
380,19,Mr,Chris,Hoyle,leealbans@upperwitham-idb.gov.uk,01522 697123,01522 697123,,Upper Witham Internal Drainage Board,Operator,J1 The Point Weaver Road Linco,,LINCOLN,Choose,LN6 3QN,United Kingdom,Sales Enquiry,Willowbrook,,Immediately,,Mcr,Yes,Yes,Yes,Yes,None,No
381,19,Mr,Shane,Bray,shane.bray@environment-agency.gov.uk,07827 880910,,,Environment Agency,Field Operations,Environment Agancy,Old Moor Lane,BARNSLEY,,S730YF,United Kingdom,Sales Enquiry,Willowbrook,,0-3 Months,,,Yes,Yes,Yes,Yes,None,No
382,19,Mr,Don,Wilson,donald.wilson@environment-agency.gov.uk,07827 880910,,,Environment Agency,Field Operations,Environment Agancy,Old Moor Lane,BARNSLEY,,S730YF,United Kingdom,Sales Enquiry,Willowbrook,,0-3 Months,,,Yes,Yes,Yes,Yes,None,No
383,19,Mr,Alan,Strather,chris.simpson@rphsurfacing.co.uk,01623 238432,,,Thomas Bow,Site Manager,The Old School Offices,John Davies Workshops,HUTHWAITE,Notts,NG17 2LQ,United Kingdom,Sales Enquiry,Willowbrook,,0-3 Months,,Cabbed dumper,Yes,Yes,Yes,Yes,None,No
384,19,Mr,Matt,Wright,leealbans@upperwitham-idb.gov.uk,01522 697123,01522 697123,,upper witham internal drainage board,OPERATORS,J1 The Point Weaver Road Linco,,LINCOLN,Choose .,LN63QN,United Kingdom,Sales Enquiry,Willowbrook,,Immediately,,Mcr,Yes,Yes,Yes,Yes,None,No
385,19,Mr,Jordan,Masterson,jordanmasterson@hotmail.co.uk,01353 688238,,,Littleport and Down Ham Idb,Operator,27 Prickwillow Road,Isleham,ELY,Cambs,CB7 5RQ,United Kingdom,Sales Enquiry,Willowbrook,,0-3 Months,,,Yes,Yes,Yes,Yes,None,No
,,Mr,Rhys,Fewster,,,,,Graham Fewster,336142514,,,,,,United Kingdom,Sales Enquiry,,,Immediately,,,Yes,Yes,Yes,Yes,None,No
,,Mr,Stephen,Wilkins,,,,,L A Services Ltd,Owner,4a Coronation Road,Brimington,CHESTERFIELD,,S42 7PT,United Kingdom,Sales Enquiry,,,Immediately,,,Yes,Yes,Yes,Yes,None,No
,,Mr,Colin,Butcher,,,,,Lincs Groundcare ltd,Director,,,,,,United Kingdom,Sales Enquiry,,,0-3 Months,,,Yes,Yes,Yes,Yes,None,No